<?xml version="1.0" encoding="UTF-8"?>
<gpx version="1.0" creator="Calcul itineraires - www.calculitineraires.fr" xmlns:xsi="http://www.w3.org/2001/XMLSchema-instance" xmlns="http://www.topografix.com/GPX/1/0" xsi:schemaLocation="http://www.topografix.com/GPX/1/0 http://www.topografix.com/GPX/1/0/gpx.xsd">
<trk>
<name>xe</name>
<trkseg>
<trkpt lat="43.48737264917839" lon="3.7271680405081047">
</trkpt>
<trkpt lat="43.487381" lon="3.727177">
</trkpt>
<trkpt lat="43.487369" lon="3.7272">
</trkpt>
<trkpt lat="43.487344" lon="3.727297">
</trkpt>
<trkpt lat="43.487197" lon="3.727632">
</trkpt>
<trkpt lat="43.487082" lon="3.727852">
</trkpt>
<trkpt lat="43.486901" lon="3.727941">
</trkpt>
<trkpt lat="43.486805" lon="3.728106">
</trkpt>
<trkpt lat="43.486874" lon="3.728333">
</trkpt>
<trkpt lat="43.486843" lon="3.728515">
</trkpt>
<trkpt lat="43.486799" lon="3.728566">
</trkpt>
<trkpt lat="43.48679" lon="3.728653">
</trkpt>
<trkpt lat="43.48683" lon="3.728709">
</trkpt>
<trkpt lat="43.486826" lon="3.728817">
</trkpt>
<trkpt lat="43.486777" lon="3.728888">
</trkpt>
<trkpt lat="43.486736" lon="3.729043">
</trkpt>
<trkpt lat="43.486708" lon="3.7291">
</trkpt>
<trkpt lat="43.486678" lon="3.729124">
</trkpt>
<trkpt lat="43.486609" lon="3.729453">
</trkpt>
<trkpt lat="43.486449" lon="3.729585">
</trkpt>
<trkpt lat="43.486409" lon="3.729674">
</trkpt>
<trkpt lat="43.486388" lon="3.729842">
</trkpt>
<trkpt lat="43.486342" lon="3.729915">
</trkpt>
<trkpt lat="43.486292" lon="3.729933">
</trkpt>
<trkpt lat="43.486268" lon="3.729963">
</trkpt>
<trkpt lat="43.48626" lon="3.73001">
</trkpt>
<trkpt lat="43.486307" lon="3.730229">
</trkpt>
<trkpt lat="43.486282" lon="3.730283">
</trkpt>
<trkpt lat="43.48624" lon="3.730301">
</trkpt>
<trkpt lat="43.486214" lon="3.730467">
</trkpt>
<trkpt lat="43.486155" lon="3.730549">
</trkpt>
<trkpt lat="43.486108" lon="3.730732">
</trkpt>
<trkpt lat="43.486068" lon="3.730803">
</trkpt>
<trkpt lat="43.48595" lon="3.730835">
</trkpt>
<trkpt lat="43.485873" lon="3.730901">
</trkpt>
<trkpt lat="43.485683" lon="3.730865">
</trkpt>
<trkpt lat="43.485532" lon="3.730945">
</trkpt>
<trkpt lat="43.485525" lon="3.730945">
</trkpt>
<trkpt lat="43.485525" lon="3.730945">
</trkpt>
<trkpt lat="43.485402" lon="3.730936">
</trkpt>
<trkpt lat="43.485378" lon="3.731044">
</trkpt>
<trkpt lat="43.485406" lon="3.731299">
</trkpt>
<trkpt lat="43.48546" lon="3.731546">
</trkpt>
<trkpt lat="43.485397" lon="3.731747">
</trkpt>
<trkpt lat="43.48546" lon="3.732085">
</trkpt>
<trkpt lat="43.48549" lon="3.732403">
</trkpt>
<trkpt lat="43.485453" lon="3.732588">
</trkpt>
<trkpt lat="43.485399" lon="3.732713">
</trkpt>
<trkpt lat="43.48525" lon="3.732921">
</trkpt>
<trkpt lat="43.485107" lon="3.733012">
</trkpt>
<trkpt lat="43.484956" lon="3.733057">
</trkpt>
<trkpt lat="43.484428" lon="3.733145">
</trkpt>
<trkpt lat="43.484368" lon="3.733166">
</trkpt>
<trkpt lat="43.484368" lon="3.733166">
</trkpt>
<trkpt lat="43.484182" lon="3.733229">
</trkpt>
<trkpt lat="43.484141" lon="3.73327">
</trkpt>
<trkpt lat="43.484059" lon="3.733306">
</trkpt>
<trkpt lat="43.483956" lon="3.733323">
</trkpt>
<trkpt lat="43.483856" lon="3.733299">
</trkpt>
<trkpt lat="43.483751" lon="3.733246">
</trkpt>
<trkpt lat="43.483668" lon="3.733173">
</trkpt>
<trkpt lat="43.483318" lon="3.732494">
</trkpt>
<trkpt lat="43.482932" lon="3.731939">
</trkpt>
<trkpt lat="43.482469" lon="3.731619">
</trkpt>
<trkpt lat="43.482062" lon="3.731523">
</trkpt>
<trkpt lat="43.481692" lon="3.731714">
</trkpt>
<trkpt lat="43.48135" lon="3.731993">
</trkpt>
<trkpt lat="43.481027" lon="3.732041">
</trkpt>
<trkpt lat="43.480627" lon="3.731962">
</trkpt>
<trkpt lat="43.480473" lon="3.731651">
</trkpt>
<trkpt lat="43.480444" lon="3.731373">
</trkpt>
<trkpt lat="43.480426" lon="3.731242">
</trkpt>
<trkpt lat="43.480404" lon="3.731199">
</trkpt>
<trkpt lat="43.48041" lon="3.731117">
</trkpt>
<trkpt lat="43.480338" lon="3.730921">
</trkpt>
<trkpt lat="43.480402" lon="3.730866">
</trkpt>
<trkpt lat="43.480465" lon="3.730712">
</trkpt>
<trkpt lat="43.480465" lon="3.730712">
</trkpt>
<trkpt lat="43.480402" lon="3.730866">
</trkpt>
<trkpt lat="43.480338" lon="3.730921">
</trkpt>
<trkpt lat="43.48041" lon="3.731117">
</trkpt>
<trkpt lat="43.480404" lon="3.731199">
</trkpt>
<trkpt lat="43.480426" lon="3.731242">
</trkpt>
<trkpt lat="43.480444" lon="3.731373">
</trkpt>
<trkpt lat="43.480407" lon="3.731385">
</trkpt>
<trkpt lat="43.480186" lon="3.731329">
</trkpt>
<trkpt lat="43.480026" lon="3.731415">
</trkpt>
<trkpt lat="43.479438" lon="3.730596">
</trkpt>
<trkpt lat="43.479322" lon="3.730347">
</trkpt>
<trkpt lat="43.47889" lon="3.729803">
</trkpt>
<trkpt lat="43.478444" lon="3.729347">
</trkpt>
<trkpt lat="43.478401" lon="3.729122">
</trkpt>
<trkpt lat="43.478419" lon="3.729064">
</trkpt>
<trkpt lat="43.478419" lon="3.729064">
</trkpt>
<trkpt lat="43.47845" lon="3.728965">
</trkpt>
<trkpt lat="43.478624" lon="3.728711">
</trkpt>
<trkpt lat="43.478743" lon="3.728593">
</trkpt>
<trkpt lat="43.478963" lon="3.728474">
</trkpt>
<trkpt lat="43.479077" lon="3.728454">
</trkpt>
<trkpt lat="43.47927" lon="3.728323">
</trkpt>
<trkpt lat="43.479393" lon="3.72832">
</trkpt>
<trkpt lat="43.479519" lon="3.728267">
</trkpt>
<trkpt lat="43.479934" lon="3.728309">
</trkpt>
<trkpt lat="43.480103" lon="3.728297">
</trkpt>
<trkpt lat="43.480492" lon="3.728161">
</trkpt>
<trkpt lat="43.480668" lon="3.728125">
</trkpt>
<trkpt lat="43.481133" lon="3.727939">
</trkpt>
<trkpt lat="43.481374" lon="3.727642">
</trkpt>
<trkpt lat="43.481427" lon="3.727519">
</trkpt>
<trkpt lat="43.481451" lon="3.727364">
</trkpt>
<trkpt lat="43.481462" lon="3.727185">
</trkpt>
<trkpt lat="43.481399" lon="3.727062">
</trkpt>
<trkpt lat="43.481297" lon="3.726985">
</trkpt>
<trkpt lat="43.480915" lon="3.726662">
</trkpt>
<trkpt lat="43.480183" lon="3.726458">
</trkpt>
<trkpt lat="43.479397" lon="3.72575">
</trkpt>
<trkpt lat="43.478968" lon="3.725557">
</trkpt>
<trkpt lat="43.478532" lon="3.725396">
</trkpt>
<trkpt lat="43.478221" lon="3.725246">
</trkpt>
<trkpt lat="43.477871" lon="3.72479">
</trkpt>
<trkpt lat="43.477601" lon="3.724297">
</trkpt>
<trkpt lat="43.477232" lon="3.723612">
</trkpt>
<trkpt lat="43.477036" lon="3.723315">
</trkpt>
<trkpt lat="43.476866" lon="3.723123">
</trkpt>
<trkpt lat="43.47679" lon="3.723064">
</trkpt>
<trkpt lat="43.47679" lon="3.723064">
</trkpt>
<trkpt lat="43.476656" lon="3.722958">
</trkpt>
<trkpt lat="43.476453" lon="3.722826">
</trkpt>
<trkpt lat="43.476197" lon="3.722701">
</trkpt>
<trkpt lat="43.476017" lon="3.722662">
</trkpt>
<trkpt lat="43.475647" lon="3.722659">
</trkpt>
<trkpt lat="43.475512" lon="3.722636">
</trkpt>
<trkpt lat="43.475286" lon="3.722497">
</trkpt>
<trkpt lat="43.475267" lon="3.722452">
</trkpt>
<trkpt lat="43.475165" lon="3.722204">
</trkpt>
<trkpt lat="43.47511" lon="3.722024">
</trkpt>
<trkpt lat="43.475072" lon="3.721818">
</trkpt>
<trkpt lat="43.475011" lon="3.721632">
</trkpt>
<trkpt lat="43.474928" lon="3.721475">
</trkpt>
<trkpt lat="43.474834" lon="3.721353">
</trkpt>
<trkpt lat="43.474667" lon="3.721228">
</trkpt>
<trkpt lat="43.473776" lon="3.720804">
</trkpt>
<trkpt lat="43.473312" lon="3.720437">
</trkpt>
<trkpt lat="43.472954" lon="3.719983">
</trkpt>
<trkpt lat="43.472631" lon="3.719522">
</trkpt>
<trkpt lat="43.472572" lon="3.719433">
</trkpt>
<trkpt lat="43.47253" lon="3.719299">
</trkpt>
<trkpt lat="43.472506" lon="3.719181">
</trkpt>
<trkpt lat="43.47251" lon="3.719066">
</trkpt>
<trkpt lat="43.472588" lon="3.718849">
</trkpt>
<trkpt lat="43.473192" lon="3.718304">
</trkpt>
<trkpt lat="43.473485" lon="3.717972">
</trkpt>
<trkpt lat="43.473812" lon="3.717371">
</trkpt>
<trkpt lat="43.47397" lon="3.717119">
</trkpt>
<trkpt lat="43.474036" lon="3.716944">
</trkpt>
<trkpt lat="43.473952" lon="3.716772">
</trkpt>
<trkpt lat="43.473841" lon="3.716753">
</trkpt>
<trkpt lat="43.473775" lon="3.716742">
</trkpt>
<trkpt lat="43.473728" lon="3.71671">
</trkpt>
<trkpt lat="43.473363" lon="3.716985">
</trkpt>
<trkpt lat="43.472917" lon="3.71716">
</trkpt>
<trkpt lat="43.472771" lon="3.717177">
</trkpt>
<trkpt lat="43.47262" lon="3.717133">
</trkpt>
<trkpt lat="43.47262" lon="3.717133">
</trkpt>
<trkpt lat="43.471479" lon="3.716806">
</trkpt>
<trkpt lat="43.470706" lon="3.716455">
</trkpt>
<trkpt lat="43.470554" lon="3.716407">
</trkpt>
<trkpt lat="43.470009" lon="3.716318">
</trkpt>
<trkpt lat="43.469692" lon="3.716365">
</trkpt>
<trkpt lat="43.469552" lon="3.716348">
</trkpt>
<trkpt lat="43.468511" lon="3.716117">
</trkpt>
<trkpt lat="43.468081" lon="3.716056">
</trkpt>
<trkpt lat="43.467574" lon="3.715822">
</trkpt>
<trkpt lat="43.467459" lon="3.715704">
</trkpt>
<trkpt lat="43.467441" lon="3.715518">
</trkpt>
<trkpt lat="43.467561" lon="3.714937">
</trkpt>
<trkpt lat="43.467563" lon="3.714386">
</trkpt>
<trkpt lat="43.467497" lon="3.71407">
</trkpt>
<trkpt lat="43.467443" lon="3.713809">
</trkpt>
<trkpt lat="43.467355" lon="3.71357">
</trkpt>
<trkpt lat="43.467318" lon="3.713374">
</trkpt>
<trkpt lat="43.467325" lon="3.713209">
</trkpt>
<trkpt lat="43.467383" lon="3.713047">
</trkpt>
<trkpt lat="43.467496" lon="3.712877">
</trkpt>
<trkpt lat="43.467509" lon="3.712685">
</trkpt>
<trkpt lat="43.467423" lon="3.712351">
</trkpt>
<trkpt lat="43.46731" lon="3.712126">
</trkpt>
<trkpt lat="43.467136" lon="3.71193">
</trkpt>
<trkpt lat="43.466802" lon="3.711741">
</trkpt>
<trkpt lat="43.466739" lon="3.711699">
</trkpt>
<trkpt lat="43.466674" lon="3.711598">
</trkpt>
<trkpt lat="43.46662" lon="3.711187">
</trkpt>
<trkpt lat="43.466638" lon="3.710976">
</trkpt>
<trkpt lat="43.466669" lon="3.710813">
</trkpt>
<trkpt lat="43.466796" lon="3.71038">
</trkpt>
<trkpt lat="43.466796" lon="3.709365">
</trkpt>
<trkpt lat="43.466547" lon="3.708578">
</trkpt>
<trkpt lat="43.466534" lon="3.708948">
</trkpt>
<trkpt lat="43.466534" lon="3.708948">
</trkpt>
<trkpt lat="43.466547" lon="3.708578">
</trkpt>
<trkpt lat="43.466504" lon="3.708235">
</trkpt>
<trkpt lat="43.466251" lon="3.707573">
</trkpt>
<trkpt lat="43.465864" lon="3.706903">
</trkpt>
<trkpt lat="43.465667" lon="3.706737">
</trkpt>
<trkpt lat="43.464773" lon="3.706416">
</trkpt>
<trkpt lat="43.464097" lon="3.706245">
</trkpt>
<trkpt lat="43.463575" lon="3.706084">
</trkpt>
<trkpt lat="43.463163" lon="3.706009">
</trkpt>
<trkpt lat="43.462384" lon="3.705612">
</trkpt>
<trkpt lat="43.461948" lon="3.705441">
</trkpt>
<trkpt lat="43.461434" lon="3.705505">
</trkpt>
<trkpt lat="43.461153" lon="3.705615">
</trkpt>
<trkpt lat="43.461107" lon="3.705634">
</trkpt>
<trkpt lat="43.461065" lon="3.70567">
</trkpt>
<trkpt lat="43.461065" lon="3.70567">
</trkpt>
<trkpt lat="43.460817" lon="3.70589">
</trkpt>
<trkpt lat="43.460671" lon="3.70602">
</trkpt>
<trkpt lat="43.460406" lon="3.706385">
</trkpt>
<trkpt lat="43.460325" lon="3.706567">
</trkpt>
<trkpt lat="43.460273" lon="3.706767">
</trkpt>
<trkpt lat="43.460252" lon="3.707016">
</trkpt>
<trkpt lat="43.460283" lon="3.707355">
</trkpt>
<trkpt lat="43.460588" lon="3.708877">
</trkpt>
<trkpt lat="43.460921" lon="3.709717">
</trkpt>
<trkpt lat="43.461004" lon="3.709942">
</trkpt>
<trkpt lat="43.461042" lon="3.710224">
</trkpt>
<trkpt lat="43.461034" lon="3.710342">
</trkpt>
<trkpt lat="43.46099" lon="3.71044">
</trkpt>
<trkpt lat="43.460943" lon="3.710469">
</trkpt>
<trkpt lat="43.460902" lon="3.710457">
</trkpt>
<trkpt lat="43.460812" lon="3.710289">
</trkpt>
<trkpt lat="43.460812" lon="3.710289">
</trkpt>
<trkpt lat="43.460807" lon="3.710279">
</trkpt>
<trkpt lat="43.460715" lon="3.710182">
</trkpt>
<trkpt lat="43.460562" lon="3.710108">
</trkpt>
<trkpt lat="43.460375" lon="3.710065">
</trkpt>
<trkpt lat="43.460022" lon="3.709581">
</trkpt>
<trkpt lat="43.459787" lon="3.709303">
</trkpt>
<trkpt lat="43.459464" lon="3.708659">
</trkpt>
<trkpt lat="43.459331" lon="3.708477">
</trkpt>
<trkpt lat="43.459192" lon="3.708363">
</trkpt>
<trkpt lat="43.459008" lon="3.708332">
</trkpt>
<trkpt lat="43.458576" lon="3.708209">
</trkpt>
<trkpt lat="43.458086" lon="3.707977">
</trkpt>
<trkpt lat="43.457902" lon="3.707946">
</trkpt>
<trkpt lat="43.457665" lon="3.707973">
</trkpt>
<trkpt lat="43.457369" lon="3.708133">
</trkpt>
<trkpt lat="43.457228" lon="3.708402">
</trkpt>
<trkpt lat="43.456987" lon="3.708487">
</trkpt>
<trkpt lat="43.456668" lon="3.708509">
</trkpt>
<trkpt lat="43.456465" lon="3.708632">
</trkpt>
<trkpt lat="43.456322" lon="3.708787">
</trkpt>
<trkpt lat="43.456164" lon="3.709181">
</trkpt>
<trkpt lat="43.456089" lon="3.709871">
</trkpt>
<trkpt lat="43.455978" lon="3.71015">
</trkpt>
<trkpt lat="43.455836" lon="3.710364">
</trkpt>
<trkpt lat="43.455776" lon="3.710553">
</trkpt>
<trkpt lat="43.455815" lon="3.710891">
</trkpt>
<trkpt lat="43.455828" lon="3.711172">
</trkpt>
<trkpt lat="43.455816" lon="3.711622">
</trkpt>
<trkpt lat="43.455797" lon="3.711815">
</trkpt>
<trkpt lat="43.455762" lon="3.711926">
</trkpt>
<trkpt lat="43.455699" lon="3.711998">
</trkpt>
<trkpt lat="43.455506" lon="3.712093">
</trkpt>
<trkpt lat="43.455506" lon="3.712093">
</trkpt>
<trkpt lat="43.455313" lon="3.712189">
</trkpt>
<trkpt lat="43.455112" lon="3.712351">
</trkpt>
<trkpt lat="43.455072" lon="3.712416">
</trkpt>
<trkpt lat="43.454967" lon="3.712475">
</trkpt>
<trkpt lat="43.454816" lon="3.712603">
</trkpt>
<trkpt lat="43.454792" lon="3.712705">
</trkpt>
<trkpt lat="43.454672" lon="3.713003">
</trkpt>
<trkpt lat="43.454683" lon="3.713207">
</trkpt>
<trkpt lat="43.454894" lon="3.713572">
</trkpt>
<trkpt lat="43.454999" lon="3.713765">
</trkpt>
<trkpt lat="43.455236" lon="3.714135">
</trkpt>
<trkpt lat="43.455497" lon="3.714473">
</trkpt>
<trkpt lat="43.455797" lon="3.714747">
</trkpt>
<trkpt lat="43.456166" lon="3.715117">
</trkpt>
<trkpt lat="43.456166" lon="3.715117">
</trkpt>
<trkpt lat="43.456311" lon="3.715262">
</trkpt>
<trkpt lat="43.456638" lon="3.715353">
</trkpt>
<trkpt lat="43.457121" lon="3.715439">
</trkpt>
<trkpt lat="43.457693" lon="3.715594">
</trkpt>
<trkpt lat="43.458044" lon="3.715728">
</trkpt>
<trkpt lat="43.458049" lon="3.715755">
</trkpt>
<trkpt lat="43.458073" lon="3.715876">
</trkpt>
<trkpt lat="43.458073" lon="3.715962">
</trkpt>
<trkpt lat="43.458024" lon="3.716034">
</trkpt>
<trkpt lat="43.457876" lon="3.716163">
</trkpt>
<trkpt lat="43.457565" lon="3.716286">
</trkpt>
<trkpt lat="43.45709" lon="3.716538">
</trkpt>
<trkpt lat="43.456467" lon="3.716957">
</trkpt>
<trkpt lat="43.45607" lon="3.717246">
</trkpt>
<trkpt lat="43.455851" lon="3.717547">
</trkpt>
<trkpt lat="43.455594" lon="3.718223">
</trkpt>
<trkpt lat="43.455548" lon="3.718512">
</trkpt>
<trkpt lat="43.455587" lon="3.718823">
</trkpt>
<trkpt lat="43.45575" lon="3.719177">
</trkpt>
<trkpt lat="43.455937" lon="3.719328">
</trkpt>
<trkpt lat="43.456272" lon="3.719403">
</trkpt>
<trkpt lat="43.457479" lon="3.719199">
</trkpt>
<trkpt lat="43.45784" lon="3.719256">
</trkpt>
<trkpt lat="43.45784" lon="3.719256">
</trkpt>
<trkpt lat="43.457954" lon="3.719274">
</trkpt>
<trkpt lat="43.45825" lon="3.719414">
</trkpt>
<trkpt lat="43.458429" lon="3.71965">
</trkpt>
<trkpt lat="43.458593" lon="3.71995">
</trkpt>
<trkpt lat="43.458764" lon="3.720047">
</trkpt>
<trkpt lat="43.459122" lon="3.720154">
</trkpt>
<trkpt lat="43.459551" lon="3.720165">
</trkpt>
<trkpt lat="43.459878" lon="3.720057">
</trkpt>
<trkpt lat="43.460189" lon="3.719778">
</trkpt>
<trkpt lat="43.460516" lon="3.719446">
</trkpt>
<trkpt lat="43.46075" lon="3.719306">
</trkpt>
<trkpt lat="43.460952" lon="3.719081">
</trkpt>
<trkpt lat="43.460977" lon="3.718997">
</trkpt>
<trkpt lat="43.460977" lon="3.718997">
</trkpt>
<trkpt lat="43.461096" lon="3.718585">
</trkpt>
<trkpt lat="43.461147" lon="3.71835">
</trkpt>
<trkpt lat="43.461191" lon="3.717989">
</trkpt>
<trkpt lat="43.461175" lon="3.71756">
</trkpt>
<trkpt lat="43.461303" lon="3.717507">
</trkpt>
<trkpt lat="43.462111" lon="3.717343">
</trkpt>
<trkpt lat="43.462296" lon="3.71737">
</trkpt>
<trkpt lat="43.462379" lon="3.717407">
</trkpt>
<trkpt lat="43.462379" lon="3.717407">
</trkpt>
<trkpt lat="43.462457" lon="3.717443">
</trkpt>
<trkpt lat="43.462558" lon="3.717542">
</trkpt>
<trkpt lat="43.462627" lon="3.717759">
</trkpt>
<trkpt lat="43.462634" lon="3.718092">
</trkpt>
<trkpt lat="43.462603" lon="3.71862">
</trkpt>
<trkpt lat="43.462556" lon="3.719108">
</trkpt>
<trkpt lat="43.462593" lon="3.719191">
</trkpt>
<trkpt lat="43.462669" lon="3.71921">
</trkpt>
<trkpt lat="43.462753" lon="3.71917">
</trkpt>
<trkpt lat="43.463074" lon="3.718907">
</trkpt>
<trkpt lat="43.463181" lon="3.71888">
</trkpt>
<trkpt lat="43.463283" lon="3.718899">
</trkpt>
<trkpt lat="43.463388" lon="3.718947">
</trkpt>
<trkpt lat="43.463483" lon="3.718934">
</trkpt>
<trkpt lat="43.46354" lon="3.718883">
</trkpt>
<trkpt lat="43.463584" lon="3.718607">
</trkpt>
<trkpt lat="43.463814" lon="3.71822">
</trkpt>
<trkpt lat="43.464007" lon="3.717966">
</trkpt>
<trkpt lat="43.46419" lon="3.717794">
</trkpt>
<trkpt lat="43.464357" lon="3.71774">
</trkpt>
<trkpt lat="43.464488" lon="3.717743">
</trkpt>
<trkpt lat="43.464585" lon="3.717815">
</trkpt>
<trkpt lat="43.464721" lon="3.718035">
</trkpt>
<trkpt lat="43.464883" lon="3.718242">
</trkpt>
<trkpt lat="43.465482" lon="3.718802">
</trkpt>
<trkpt lat="43.465716" lon="3.718967">
</trkpt>
<trkpt lat="43.465716" lon="3.718967">
</trkpt>
<trkpt lat="43.46609" lon="3.719232">
</trkpt>
<trkpt lat="43.466397" lon="3.719497">
</trkpt>
<trkpt lat="43.466656" lon="3.719784">
</trkpt>
<trkpt lat="43.466898" lon="3.720119">
</trkpt>
<trkpt lat="43.466981" lon="3.720452">
</trkpt>
<trkpt lat="43.467036" lon="3.72079">
</trkpt>
<trkpt lat="43.467079" lon="3.721179">
</trkpt>
<trkpt lat="43.467075" lon="3.72138">
</trkpt>
<trkpt lat="43.467014" lon="3.721662">
</trkpt>
<trkpt lat="43.46704" lon="3.721739">
</trkpt>
<trkpt lat="43.467059" lon="3.721749">
</trkpt>
<trkpt lat="43.4671" lon="3.721769">
</trkpt>
<trkpt lat="43.467178" lon="3.721742">
</trkpt>
<trkpt lat="43.467589" lon="3.721454">
</trkpt>
<trkpt lat="43.46771" lon="3.721432">
</trkpt>
<trkpt lat="43.467853" lon="3.721444">
</trkpt>
<trkpt lat="43.468035" lon="3.721505">
</trkpt>
<trkpt lat="43.468809" lon="3.721887">
</trkpt>
<trkpt lat="43.46902" lon="3.722083">
</trkpt>
<trkpt lat="43.469193" lon="3.722346">
</trkpt>
<trkpt lat="43.46928" lon="3.722614">
</trkpt>
<trkpt lat="43.469352" lon="3.72307">
</trkpt>
<trkpt lat="43.469397" lon="3.723172">
</trkpt>
<trkpt lat="43.469479" lon="3.723217">
</trkpt>
<trkpt lat="43.469553" lon="3.723217">
</trkpt>
<trkpt lat="43.469711" lon="3.72315">
</trkpt>
<trkpt lat="43.469899" lon="3.723005">
</trkpt>
<trkpt lat="43.470115" lon="3.722769">
</trkpt>
<trkpt lat="43.470281" lon="3.722541">
</trkpt>
<trkpt lat="43.470398" lon="3.722415">
</trkpt>
<trkpt lat="43.470536" lon="3.722351">
</trkpt>
<trkpt lat="43.470676" lon="3.722343">
</trkpt>
<trkpt lat="43.470865" lon="3.722434">
</trkpt>
<trkpt lat="43.471213" lon="3.722759">
</trkpt>
<trkpt lat="43.471447" lon="3.723064">
</trkpt>
<trkpt lat="43.471516" lon="3.723261">
</trkpt>
<trkpt lat="43.471516" lon="3.723261">
</trkpt>
<trkpt lat="43.471529" lon="3.723298">
</trkpt>
<trkpt lat="43.471544" lon="3.723448">
</trkpt>
<trkpt lat="43.471459" lon="3.724212">
</trkpt>
<trkpt lat="43.471412" lon="3.724494">
</trkpt>
<trkpt lat="43.471301" lon="3.724888">
</trkpt>
<trkpt lat="43.471231" lon="3.72524">
</trkpt>
<trkpt lat="43.471223" lon="3.726854">
</trkpt>
<trkpt lat="43.471237" lon="3.727222">
</trkpt>
<trkpt lat="43.471178" lon="3.727479">
</trkpt>
<trkpt lat="43.471095" lon="3.727664">
</trkpt>
<trkpt lat="43.470987" lon="3.727804">
</trkpt>
<trkpt lat="43.470787" lon="3.728265">
</trkpt>
<trkpt lat="43.470602" lon="3.728714">
</trkpt>
<trkpt lat="43.470476" lon="3.728985">
</trkpt>
<trkpt lat="43.470375" lon="3.729102">
</trkpt>
<trkpt lat="43.470264" lon="3.729169">
</trkpt>
<trkpt lat="43.470091" lon="3.729218">
</trkpt>
<trkpt lat="43.469434" lon="3.729321">
</trkpt>
<trkpt lat="43.469152" lon="3.729402">
</trkpt>
<trkpt lat="43.468971" lon="3.729521">
</trkpt>
<trkpt lat="43.468835" lon="3.729782">
</trkpt>
<trkpt lat="43.468737" lon="3.730232">
</trkpt>
<trkpt lat="43.468693" lon="3.730815">
</trkpt>
<trkpt lat="43.468705" lon="3.731199">
</trkpt>
<trkpt lat="43.468781" lon="3.731343">
</trkpt>
<trkpt lat="43.469068" lon="3.731716">
</trkpt>
<trkpt lat="43.469162" lon="3.732001">
</trkpt>
<trkpt lat="43.469158" lon="3.732308">
</trkpt>
<trkpt lat="43.469121" lon="3.732591">
</trkpt>
<trkpt lat="43.46913" lon="3.732948">
</trkpt>
<trkpt lat="43.469179" lon="3.733154">
</trkpt>
<trkpt lat="43.469197" lon="3.73318">
</trkpt>
<trkpt lat="43.469339" lon="3.733382">
</trkpt>
<trkpt lat="43.46935" lon="3.733393">
</trkpt>
<trkpt lat="43.46935" lon="3.733393">
</trkpt>
<trkpt lat="43.469664" lon="3.733697">
</trkpt>
<trkpt lat="43.469831" lon="3.733958">
</trkpt>
<trkpt lat="43.469901" lon="3.734113">
</trkpt>
<trkpt lat="43.470002" lon="3.734237">
</trkpt>
<trkpt lat="43.470203" lon="3.73437">
</trkpt>
<trkpt lat="43.47047" lon="3.734454">
</trkpt>
<trkpt lat="43.471266" lon="3.734527">
</trkpt>
<trkpt lat="43.471975" lon="3.734444">
</trkpt>
<trkpt lat="43.472299" lon="3.734454">
</trkpt>
<trkpt lat="43.472575" lon="3.73452">
</trkpt>
<trkpt lat="43.472685" lon="3.734553">
</trkpt>
<trkpt lat="43.472807" lon="3.734655">
</trkpt>
<trkpt lat="43.473017" lon="3.734949">
</trkpt>
<trkpt lat="43.473184" lon="3.73514">
</trkpt>
<trkpt lat="43.473228" lon="3.73519">
</trkpt>
<trkpt lat="43.473497" lon="3.735346">
</trkpt>
<trkpt lat="43.473894" lon="3.735507">
</trkpt>
<trkpt lat="43.474143" lon="3.735711">
</trkpt>
<trkpt lat="43.47454" lon="3.736118">
</trkpt>
<trkpt lat="43.474842" lon="3.736557">
</trkpt>
<trkpt lat="43.474988" lon="3.736669">
</trkpt>
<trkpt lat="43.475054" lon="3.736721">
</trkpt>
<trkpt lat="43.475835" lon="3.736818">
</trkpt>
<trkpt lat="43.477051" lon="3.737149">
</trkpt>
<trkpt lat="43.477306" lon="3.737319">
</trkpt>
<trkpt lat="43.477712" lon="3.737654">
</trkpt>
<trkpt lat="43.477989" lon="3.738054">
</trkpt>
<trkpt lat="43.478271" lon="3.73865">
</trkpt>
<trkpt lat="43.478404" lon="3.739147">
</trkpt>
<trkpt lat="43.478495" lon="3.739822">
</trkpt>
<trkpt lat="43.478559" lon="3.739934">
</trkpt>
<trkpt lat="43.478645" lon="3.740085">
</trkpt>
<trkpt lat="43.479028" lon="3.740488">
</trkpt>
<trkpt lat="43.479507" lon="3.74071">
</trkpt>
<trkpt lat="43.480107" lon="3.740753">
</trkpt>
<trkpt lat="43.480502" lon="3.740736">
</trkpt>
<trkpt lat="43.480589" lon="3.740796">
</trkpt>
<trkpt lat="43.480624" lon="3.740745">
</trkpt>
<trkpt lat="43.481033" lon="3.740903">
</trkpt>
<trkpt lat="43.481212" lon="3.74085">
</trkpt>
<trkpt lat="43.481453" lon="3.740657">
</trkpt>
<trkpt lat="43.481668" lon="3.74051">
</trkpt>
<trkpt lat="43.481668" lon="3.74051">
</trkpt>
<trkpt lat="43.481734" lon="3.740465">
</trkpt>
<trkpt lat="43.481819" lon="3.740618">
</trkpt>
<trkpt lat="43.481805" lon="3.741124">
</trkpt>
<trkpt lat="43.481772" lon="3.741401">
</trkpt>
<trkpt lat="43.481635" lon="3.742033">
</trkpt>
<trkpt lat="43.481531" lon="3.742378">
</trkpt>
<trkpt lat="43.481367" lon="3.742919">
</trkpt>
<trkpt lat="43.481351" lon="3.744083">
</trkpt>
<trkpt lat="43.481489" lon="3.744667">
</trkpt>
<trkpt lat="43.481819" lon="3.745658">
</trkpt>
<trkpt lat="43.482143" lon="3.746736">
</trkpt>
<trkpt lat="43.482192" lon="3.747084">
</trkpt>
<trkpt lat="43.482197" lon="3.747586">
</trkpt>
<trkpt lat="43.482184" lon="3.748159">
</trkpt>
<trkpt lat="43.48213" lon="3.748663">
</trkpt>
<trkpt lat="43.48214" lon="3.749156">
</trkpt>
<trkpt lat="43.482169" lon="3.749632">
</trkpt>
<trkpt lat="43.48222" lon="3.749909">
</trkpt>
<trkpt lat="43.482287" lon="3.750038">
</trkpt>
<trkpt lat="43.482403" lon="3.750257">
</trkpt>
<trkpt lat="43.48267" lon="3.750463">
</trkpt>
<trkpt lat="43.483335" lon="3.75076">
</trkpt>
<trkpt lat="43.48368" lon="3.750788">
</trkpt>
<trkpt lat="43.483881" lon="3.75088">
</trkpt>
<trkpt lat="43.484049" lon="3.750992">
</trkpt>
<trkpt lat="43.484202" lon="3.751222">
</trkpt>
<trkpt lat="43.484477" lon="3.751539">
</trkpt>
<trkpt lat="43.484784" lon="3.751787">
</trkpt>
<trkpt lat="43.48506" lon="3.751821">
</trkpt>
<trkpt lat="43.485395" lon="3.751772">
</trkpt>
<trkpt lat="43.485726" lon="3.751788">
</trkpt>
<trkpt lat="43.485914" lon="3.751844">
</trkpt>
<trkpt lat="43.486168" lon="3.751969">
</trkpt>
<trkpt lat="43.486421" lon="3.752176">
</trkpt>
<trkpt lat="43.486695" lon="3.75231">
</trkpt>
<trkpt lat="43.486747" lon="3.752363">
</trkpt>
<trkpt lat="43.487031" lon="3.752649">
</trkpt>
<trkpt lat="43.487186" lon="3.752972">
</trkpt>
<trkpt lat="43.487287" lon="3.753364">
</trkpt>
<trkpt lat="43.48731" lon="3.753706">
</trkpt>
<trkpt lat="43.487173" lon="3.753913">
</trkpt>
<trkpt lat="43.486883" lon="3.754188">
</trkpt>
<trkpt lat="43.486792" lon="3.754278">
</trkpt>
<trkpt lat="43.486691" lon="3.754536">
</trkpt>
<trkpt lat="43.486723" lon="3.754833">
</trkpt>
<trkpt lat="43.486781" lon="3.755057">
</trkpt>
<trkpt lat="43.486783" lon="3.755184">
</trkpt>
<trkpt lat="43.486785" lon="3.755469">
</trkpt>
<trkpt lat="43.486741" lon="3.755767">
</trkpt>
<trkpt lat="43.486727" lon="3.755859">
</trkpt>
<trkpt lat="43.486594" lon="3.756208">
</trkpt>
<trkpt lat="43.486649" lon="3.756403">
</trkpt>
<trkpt lat="43.486786" lon="3.756595">
</trkpt>
<trkpt lat="43.486938" lon="3.756706">
</trkpt>
<trkpt lat="43.486938" lon="3.756706">
</trkpt>
<trkpt lat="43.48696" lon="3.756722">
</trkpt>
<trkpt lat="43.487198" lon="3.756807">
</trkpt>
<trkpt lat="43.487393" lon="3.756843">
</trkpt>
<trkpt lat="43.487579" lon="3.756726">
</trkpt>
<trkpt lat="43.487843" lon="3.756292">
</trkpt>
<trkpt lat="43.487888" lon="3.756252">
</trkpt>
<trkpt lat="43.487934" lon="3.75621">
</trkpt>
<trkpt lat="43.488127" lon="3.756139">
</trkpt>
<trkpt lat="43.488514" lon="3.756131">
</trkpt>
<trkpt lat="43.488876" lon="3.756153">
</trkpt>
<trkpt lat="43.48909" lon="3.756217">
</trkpt>
<trkpt lat="43.489261" lon="3.756315">
</trkpt>
<trkpt lat="43.489596" lon="3.756556">
</trkpt>
<trkpt lat="43.489731" lon="3.756766">
</trkpt>
<trkpt lat="43.490163" lon="3.757669">
</trkpt>
<trkpt lat="43.490455" lon="3.758483">
</trkpt>
<trkpt lat="43.490608" lon="3.758731">
</trkpt>
<trkpt lat="43.490709" lon="3.758796">
</trkpt>
<trkpt lat="43.490842" lon="3.758808">
</trkpt>
<trkpt lat="43.490866" lon="3.758797">
</trkpt>
<trkpt lat="43.490866" lon="3.758797">
</trkpt>
<trkpt lat="43.491016" lon="3.758726">
</trkpt>
<trkpt lat="43.491064" lon="3.75866">
</trkpt>
<trkpt lat="43.491089" lon="3.758627">
</trkpt>
<trkpt lat="43.491112" lon="3.758467">
</trkpt>
<trkpt lat="43.491198" lon="3.758301">
</trkpt>
<trkpt lat="43.491409" lon="3.758181">
</trkpt>
<trkpt lat="43.491778" lon="3.758028">
</trkpt>
<trkpt lat="43.492028" lon="3.758043">
</trkpt>
<trkpt lat="43.492253" lon="3.758119">
</trkpt>
<trkpt lat="43.49256" lon="3.758434">
</trkpt>
<trkpt lat="43.492844" lon="3.758655">
</trkpt>
<trkpt lat="43.493168" lon="3.758786">
</trkpt>
<trkpt lat="43.493363" lon="3.758932">
</trkpt>
<trkpt lat="43.493472" lon="3.758838">
</trkpt>
<trkpt lat="43.493612" lon="3.758768">
</trkpt>
<trkpt lat="43.493727" lon="3.758673">
</trkpt>
<trkpt lat="43.493743" lon="3.758645">
</trkpt>
<trkpt lat="43.493743" lon="3.758645">
</trkpt>
<trkpt lat="43.493822" lon="3.75851">
</trkpt>
<trkpt lat="43.493833" lon="3.758739">
</trkpt>
<trkpt lat="43.49379" lon="3.759051">
</trkpt>
<trkpt lat="43.493716" lon="3.759349">
</trkpt>
<trkpt lat="43.49328" lon="3.760306">
</trkpt>
<trkpt lat="43.493027" lon="3.76004">
</trkpt>
<trkpt lat="43.49284" lon="3.759943">
</trkpt>
<trkpt lat="43.492832" lon="3.759952">
</trkpt>
<trkpt lat="43.492832" lon="3.759952">
</trkpt>
<trkpt lat="43.492731" lon="3.760061">
</trkpt>
<trkpt lat="43.492552" lon="3.760673">
</trkpt>
<trkpt lat="43.492326" lon="3.761273">
</trkpt>
<trkpt lat="43.492256" lon="3.76166">
</trkpt>
<trkpt lat="43.492326" lon="3.762014">
</trkpt>
<trkpt lat="43.492414" lon="3.762138">
</trkpt>
<trkpt lat="43.492552" lon="3.762336">
</trkpt>
<trkpt lat="43.492894" lon="3.762475">
</trkpt>
<trkpt lat="43.493276" lon="3.762443">
</trkpt>
<trkpt lat="43.493455" lon="3.762507">
</trkpt>
<trkpt lat="43.493455" lon="3.762507">
</trkpt>
<trkpt lat="43.49361" lon="3.7627">
</trkpt>
<trkpt lat="43.493758" lon="3.76314">
</trkpt>
<trkpt lat="43.494039" lon="3.763859">
</trkpt>
<trkpt lat="43.494132" lon="3.76402">
</trkpt>
<trkpt lat="43.494163" lon="3.764106">
</trkpt>
<trkpt lat="43.494101" lon="3.764159">
</trkpt>
<trkpt lat="43.493727" lon="3.763677">
</trkpt>
<trkpt lat="43.493463" lon="3.763398">
</trkpt>
<trkpt lat="43.493408" lon="3.763398">
</trkpt>
<trkpt lat="43.4934" lon="3.763451">
</trkpt>
<trkpt lat="43.49361" lon="3.763945">
</trkpt>
<trkpt lat="43.493836" lon="3.764556">
</trkpt>
<trkpt lat="43.494" lon="3.764878">
</trkpt>
<trkpt lat="43.494256" lon="3.765104">
</trkpt>
<trkpt lat="43.494435" lon="3.765168">
</trkpt>
<trkpt lat="43.494941" lon="3.765136">
</trkpt>
<trkpt lat="43.495066" lon="3.765254">
</trkpt>
<trkpt lat="43.495432" lon="3.765683">
</trkpt>
<trkpt lat="43.495595" lon="3.765833">
</trkpt>
<trkpt lat="43.495796" lon="3.765886">
</trkpt>
<trkpt lat="43.495922" lon="3.765919">
</trkpt>
<trkpt lat="43.496187" lon="3.765865">
</trkpt>
<trkpt lat="43.496537" lon="3.765672">
</trkpt>
<trkpt lat="43.496663" lon="3.765572">
</trkpt>
<trkpt lat="43.496663" lon="3.765572">
</trkpt>
<trkpt lat="43.496745" lon="3.765507">
</trkpt>
<trkpt lat="43.496874" lon="3.765501">
</trkpt>
<trkpt lat="43.496901" lon="3.765576">
</trkpt>
<trkpt lat="43.496892" lon="3.765706">
</trkpt>
<trkpt lat="43.4967" lon="3.765973">
</trkpt>
<trkpt lat="43.496296" lon="3.766477">
</trkpt>
<trkpt lat="43.49593" lon="3.766777">
</trkpt>
<trkpt lat="43.495556" lon="3.766927">
</trkpt>
<trkpt lat="43.495214" lon="3.766906">
</trkpt>
<trkpt lat="43.494949" lon="3.766756">
</trkpt>
<trkpt lat="43.494817" lon="3.766713">
</trkpt>
<trkpt lat="43.4947" lon="3.766777">
</trkpt>
<trkpt lat="43.494482" lon="3.767185">
</trkpt>
<trkpt lat="43.494327" lon="3.767389">
</trkpt>
<trkpt lat="43.494116" lon="3.767507">
</trkpt>
<trkpt lat="43.493922" lon="3.767518">
</trkpt>
<trkpt lat="43.493758" lon="3.767496">
</trkpt>
<trkpt lat="43.493727" lon="3.767539">
</trkpt>
<trkpt lat="43.493743" lon="3.767614">
</trkpt>
<trkpt lat="43.493836" lon="3.767689">
</trkpt>
<trkpt lat="43.494039" lon="3.767979">
</trkpt>
<trkpt lat="43.494225" lon="3.768193">
</trkpt>
<trkpt lat="43.494404" lon="3.768333">
</trkpt>
<trkpt lat="43.494537" lon="3.768408">
</trkpt>
<trkpt lat="43.494551" lon="3.768437">
</trkpt>
<trkpt lat="43.494551" lon="3.768437">
</trkpt>
<trkpt lat="43.494568" lon="3.768472">
</trkpt>
<trkpt lat="43.494552" lon="3.768558">
</trkpt>
<trkpt lat="43.494482" lon="3.768633">
</trkpt>
<trkpt lat="43.49414" lon="3.768505">
</trkpt>
<trkpt lat="43.494108" lon="3.768509">
</trkpt>
<trkpt lat="43.49407" lon="3.768515">
</trkpt>
<trkpt lat="43.494031" lon="3.768623">
</trkpt>
<trkpt lat="43.494062" lon="3.768751">
</trkpt>
<trkpt lat="43.494225" lon="3.769116">
</trkpt>
<trkpt lat="43.494498" lon="3.769524">
</trkpt>
<trkpt lat="43.494661" lon="3.769642">
</trkpt>
<trkpt lat="43.494856" lon="3.769685">
</trkpt>
<trkpt lat="43.49498" lon="3.769781">
</trkpt>
<trkpt lat="43.494995" lon="3.769887">
</trkpt>
<trkpt lat="43.494996" lon="3.769887">
</trkpt>
<trkpt lat="43.495004" lon="3.769942">
</trkpt>
<trkpt lat="43.494934" lon="3.77006">
</trkpt>
<trkpt lat="43.494832" lon="3.770146">
</trkpt>
<trkpt lat="43.494809" lon="3.770296">
</trkpt>
<trkpt lat="43.494871" lon="3.770447">
</trkpt>
<trkpt lat="43.495054" lon="3.770634">
</trkpt>
<trkpt lat="43.495214" lon="3.770768">
</trkpt>
<trkpt lat="43.495253" lon="3.770929">
</trkpt>
<trkpt lat="43.495245" lon="3.770945">
</trkpt>
<trkpt lat="43.495245" lon="3.770945">
</trkpt>
<trkpt lat="43.49519" lon="3.771058">
</trkpt>
<trkpt lat="43.495133" lon="3.771121">
</trkpt>
<trkpt lat="43.495092" lon="3.771525">
</trkpt>
<trkpt lat="43.495095" lon="3.771706">
</trkpt>
<trkpt lat="43.495219" lon="3.771813">
</trkpt>
<trkpt lat="43.495331" lon="3.771852">
</trkpt>
<trkpt lat="43.49562" lon="3.771641">
</trkpt>
<trkpt lat="43.496048" lon="3.771552">
</trkpt>
<trkpt lat="43.496215" lon="3.771448">
</trkpt>
<trkpt lat="43.496364" lon="3.771483">
</trkpt>
<trkpt lat="43.496454" lon="3.77163">
</trkpt>
<trkpt lat="43.496484" lon="3.771732">
</trkpt>
<trkpt lat="43.496494" lon="3.771769">
</trkpt>
<trkpt lat="43.496545" lon="3.771777">
</trkpt>
<trkpt lat="43.496568" lon="3.771781">
</trkpt>
<trkpt lat="43.496609" lon="3.771787">
</trkpt>
<trkpt lat="43.496958" lon="3.771699">
</trkpt>
<trkpt lat="43.497081" lon="3.771653">
</trkpt>
<trkpt lat="43.497081" lon="3.771653">
</trkpt>
<trkpt lat="43.49735" lon="3.771553">
</trkpt>
<trkpt lat="43.497609" lon="3.771411">
</trkpt>
<trkpt lat="43.497775" lon="3.771258">
</trkpt>
<trkpt lat="43.498187" lon="3.770704">
</trkpt>
<trkpt lat="43.49851" lon="3.770114">
</trkpt>
<trkpt lat="43.498559" lon="3.769875">
</trkpt>
<trkpt lat="43.498632" lon="3.769636">
</trkpt>
<trkpt lat="43.498792" lon="3.769381">
</trkpt>
<trkpt lat="43.49892" lon="3.769057">
</trkpt>
<trkpt lat="43.499203" lon="3.768528">
</trkpt>
<trkpt lat="43.499273" lon="3.768441">
</trkpt>
<trkpt lat="43.4993" lon="3.768408">
</trkpt>
<trkpt lat="43.500095" lon="3.76804">
</trkpt>
<trkpt lat="43.500335" lon="3.767935">
</trkpt>
<trkpt lat="43.50062" lon="3.767903">
</trkpt>
<trkpt lat="43.500901" lon="3.767947">
</trkpt>
<trkpt lat="43.501359" lon="3.768105">
</trkpt>
<trkpt lat="43.501416" lon="3.768099">
</trkpt>
<trkpt lat="43.501495" lon="3.76809">
</trkpt>
<trkpt lat="43.501617" lon="3.768002">
</trkpt>
<trkpt lat="43.501939" lon="3.767984">
</trkpt>
<trkpt lat="43.502376" lon="3.767774">
</trkpt>
<trkpt lat="43.502535" lon="3.767632">
</trkpt>
<trkpt lat="43.502628" lon="3.767507">
</trkpt>
<trkpt lat="43.502701" lon="3.767339">
</trkpt>
<trkpt lat="43.502748" lon="3.7672">
</trkpt>
<trkpt lat="43.502842" lon="3.766788">
</trkpt>
<trkpt lat="43.502938" lon="3.766454">
</trkpt>
<trkpt lat="43.503012" lon="3.766293">
</trkpt>
<trkpt lat="43.503183" lon="3.766058">
</trkpt>
<trkpt lat="43.503417" lon="3.765994">
</trkpt>
<trkpt lat="43.503837" lon="3.76594">
</trkpt>
<trkpt lat="43.503966" lon="3.76587">
</trkpt>
<trkpt lat="43.504079" lon="3.765685">
</trkpt>
<trkpt lat="43.504126" lon="3.765543">
</trkpt>
<trkpt lat="43.504142" lon="3.765286">
</trkpt>
<trkpt lat="43.504063" lon="3.764814">
</trkpt>
<trkpt lat="43.503915" lon="3.764403">
</trkpt>
<trkpt lat="43.503822" lon="3.764089">
</trkpt>
<trkpt lat="43.503776" lon="3.763688">
</trkpt>
<trkpt lat="43.503742" lon="3.763003">
</trkpt>
<trkpt lat="43.503742" lon="3.763003">
</trkpt>
<trkpt lat="43.503728" lon="3.762725">
</trkpt>
<trkpt lat="43.503744" lon="3.762351">
</trkpt>
<trkpt lat="43.503781" lon="3.762196">
</trkpt>
<trkpt lat="43.50386" lon="3.762121">
</trkpt>
<trkpt lat="43.504148" lon="3.761939">
</trkpt>
<trkpt lat="43.504397" lon="3.761831">
</trkpt>
<trkpt lat="43.504536" lon="3.761713">
</trkpt>
<trkpt lat="43.504635" lon="3.761593">
</trkpt>
<trkpt lat="43.50472" lon="3.761346">
</trkpt>
<trkpt lat="43.50474" lon="3.761026">
</trkpt>
<trkpt lat="43.504716" lon="3.760715">
</trkpt>
<trkpt lat="43.504747" lon="3.760565">
</trkpt>
<trkpt lat="43.504834" lon="3.760537">
</trkpt>
<trkpt lat="43.505098" lon="3.760612">
</trkpt>
<trkpt lat="43.505545" lon="3.760684">
</trkpt>
<trkpt lat="43.505996" lon="3.760826">
</trkpt>
<trkpt lat="43.506335" lon="3.760887">
</trkpt>
<trkpt lat="43.506508" lon="3.760836">
</trkpt>
<trkpt lat="43.506576" lon="3.760801">
</trkpt>
<trkpt lat="43.506755" lon="3.760538">
</trkpt>
<trkpt lat="43.506868" lon="3.760097">
</trkpt>
<trkpt lat="43.506931" lon="3.759661">
</trkpt>
<trkpt lat="43.506911" lon="3.759159">
</trkpt>
<trkpt lat="43.506837" lon="3.758686">
</trkpt>
<trkpt lat="43.506674" lon="3.758342">
</trkpt>
<trkpt lat="43.506527" lon="3.758208">
</trkpt>
<trkpt lat="43.506527" lon="3.758208">
</trkpt>
<trkpt lat="43.506407" lon="3.758098">
</trkpt>
<trkpt lat="43.506335" lon="3.757999">
</trkpt>
<trkpt lat="43.506319" lon="3.75792">
</trkpt>
<trkpt lat="43.50633" lon="3.757844">
</trkpt>
<trkpt lat="43.50636" lon="3.757794">
</trkpt>
<trkpt lat="43.506529" lon="3.75769">
</trkpt>
<trkpt lat="43.506724" lon="3.7574">
</trkpt>
<trkpt lat="43.507137" lon="3.756862">
</trkpt>
<trkpt lat="43.507137" lon="3.756862">
</trkpt>
<trkpt lat="43.5072" lon="3.756781">
</trkpt>
<trkpt lat="43.507412" lon="3.756652">
</trkpt>
<trkpt lat="43.507843" lon="3.756645">
</trkpt>
<trkpt lat="43.508178" lon="3.756678">
</trkpt>
<trkpt lat="43.508485" lon="3.756855">
</trkpt>
<trkpt lat="43.50901" lon="3.757211">
</trkpt>
<trkpt lat="43.509226" lon="3.757385">
</trkpt>
<trkpt lat="43.509424" lon="3.757733">
</trkpt>
<trkpt lat="43.509508" lon="3.758081">
</trkpt>
<trkpt lat="43.509558" lon="3.758485">
</trkpt>
<trkpt lat="43.509544" lon="3.758855">
</trkpt>
<trkpt lat="43.509553" lon="3.759264">
</trkpt>
<trkpt lat="43.509639" lon="3.759849">
</trkpt>
<trkpt lat="43.509745" lon="3.760281">
</trkpt>
<trkpt lat="43.509798" lon="3.760568">
</trkpt>
<trkpt lat="43.509871" lon="3.761839">
</trkpt>
<trkpt lat="43.509983" lon="3.762502">
</trkpt>
<trkpt lat="43.51017" lon="3.762949">
</trkpt>
<trkpt lat="43.510429" lon="3.763281">
</trkpt>
<trkpt lat="43.51069" lon="3.763468">
</trkpt>
<trkpt lat="43.510912" lon="3.763567">
</trkpt>
<trkpt lat="43.511254" lon="3.763652">
</trkpt>
<trkpt lat="43.511565" lon="3.763752">
</trkpt>
<trkpt lat="43.511947" lon="3.763926">
</trkpt>
<trkpt lat="43.512821" lon="3.764482">
</trkpt>
<trkpt lat="43.512905" lon="3.764587">
</trkpt>
<trkpt lat="43.512905" lon="3.764587">
</trkpt>
<trkpt lat="43.512821" lon="3.764482">
</trkpt>
<trkpt lat="43.514631" lon="3.763236">
</trkpt>
<trkpt lat="43.514794" lon="3.763139">
</trkpt>
<trkpt lat="43.514751" lon="3.763011">
</trkpt>
<trkpt lat="43.514654" lon="3.762989">
</trkpt>
<trkpt lat="43.514525" lon="3.762911">
</trkpt>
<trkpt lat="43.514467" lon="3.762876">
</trkpt>
<trkpt lat="43.514319" lon="3.762726">
</trkpt>
<trkpt lat="43.514035" lon="3.762104">
</trkpt>
<trkpt lat="43.51367" lon="3.761589">
</trkpt>
<trkpt lat="43.513638" lon="3.761534">
</trkpt>
<trkpt lat="43.513638" lon="3.761534">
</trkpt>
<trkpt lat="43.513514" lon="3.761321">
</trkpt>
<trkpt lat="43.513413" lon="3.761079">
</trkpt>
<trkpt lat="43.513378" lon="3.760951">
</trkpt>
<trkpt lat="43.513355" lon="3.76078">
</trkpt>
<trkpt lat="43.513342" lon="3.76069">
</trkpt>
<trkpt lat="43.513279" lon="3.760634">
</trkpt>
<trkpt lat="43.512729" lon="3.759631">
</trkpt>
<trkpt lat="43.512443" lon="3.759261">
</trkpt>
<trkpt lat="43.512364" lon="3.759353">
</trkpt>
<trkpt lat="43.512264" lon="3.759383">
</trkpt>
<trkpt lat="43.512039" lon="3.759656">
</trkpt>
<trkpt lat="43.511945" lon="3.759839">
</trkpt>
<trkpt lat="43.511848" lon="3.759919">
</trkpt>
<trkpt lat="43.511696" lon="3.759866">
</trkpt>
<trkpt lat="43.511657" lon="3.759726">
</trkpt>
<trkpt lat="43.511576" lon="3.75912">
</trkpt>
<trkpt lat="43.511471" lon="3.758841">
</trkpt>
<trkpt lat="43.511498" lon="3.758793">
</trkpt>
<trkpt lat="43.511665" lon="3.758626">
</trkpt>
<trkpt lat="43.511871" lon="3.758541">
</trkpt>
<trkpt lat="43.511938" lon="3.758482">
</trkpt>
<trkpt lat="43.511794" lon="3.758401">
</trkpt>
<trkpt lat="43.511665" lon="3.758262">
</trkpt>
<trkpt lat="43.511626" lon="3.758165">
</trkpt>
<trkpt lat="43.511292" lon="3.757934">
</trkpt>
<trkpt lat="43.51112" lon="3.757849">
</trkpt>
<trkpt lat="43.510825" lon="3.757752">
</trkpt>
<trkpt lat="43.510755" lon="3.757543">
</trkpt>
<trkpt lat="43.510825" lon="3.757328">
</trkpt>
<trkpt lat="43.510761" lon="3.757022">
</trkpt>
<trkpt lat="43.510883" lon="3.756839">
</trkpt>
<trkpt lat="43.510952" lon="3.756684">
</trkpt>
<trkpt lat="43.511079" lon="3.756765">
</trkpt>
<trkpt lat="43.511079" lon="3.756765">
</trkpt>
<trkpt lat="43.511398" lon="3.75697">
</trkpt>
<trkpt lat="43.511815" lon="3.757079">
</trkpt>
<trkpt lat="43.512148" lon="3.757079">
</trkpt>
<trkpt lat="43.512633" lon="3.757195">
</trkpt>
<trkpt lat="43.51304" lon="3.75705">
</trkpt>
<trkpt lat="43.513304" lon="3.756933">
</trkpt>
<trkpt lat="43.5136" lon="3.756425">
</trkpt>
<trkpt lat="43.513564" lon="3.756372">
</trkpt>
<trkpt lat="43.513416" lon="3.755986">
</trkpt>
<trkpt lat="43.513287" lon="3.755723">
</trkpt>
<trkpt lat="43.513151" lon="3.755493">
</trkpt>
<trkpt lat="43.513151" lon="3.755493">
</trkpt>
<trkpt lat="43.513116" lon="3.755433">
</trkpt>
<trkpt lat="43.512926" lon="3.755192">
</trkpt>
<trkpt lat="43.512762" lon="3.754945">
</trkpt>
<trkpt lat="43.512591" lon="3.754618">
</trkpt>
<trkpt lat="43.512482" lon="3.754446">
</trkpt>
<trkpt lat="43.512101" lon="3.754167">
</trkpt>
<trkpt lat="43.51204" lon="3.754101">
</trkpt>
<trkpt lat="43.511967" lon="3.754016">
</trkpt>
<trkpt lat="43.511603" lon="3.753508">
</trkpt>
<trkpt lat="43.511381" lon="3.753052">
</trkpt>
<trkpt lat="43.511023" lon="3.752547">
</trkpt>
<trkpt lat="43.510871" lon="3.75215">
</trkpt>
<trkpt lat="43.51079" lon="3.752">
</trkpt>
<trkpt lat="43.510766" lon="3.751673">
</trkpt>
<trkpt lat="43.510774" lon="3.75148">
</trkpt>
<trkpt lat="43.510747" lon="3.751206">
</trkpt>
<trkpt lat="43.510681" lon="3.750895">
</trkpt>
<trkpt lat="43.510607" lon="3.750648">
</trkpt>
<trkpt lat="43.510498" lon="3.75045">
</trkpt>
<trkpt lat="43.510393" lon="3.750209">
</trkpt>
<trkpt lat="43.510152" lon="3.749468">
</trkpt>
<trkpt lat="43.510108" lon="3.748824">
</trkpt>
<trkpt lat="43.509965" lon="3.748186">
</trkpt>
<trkpt lat="43.509949" lon="3.747988">
</trkpt>
<trkpt lat="43.509977" lon="3.747639">
</trkpt>
<trkpt lat="43.509945" lon="3.747408">
</trkpt>
<trkpt lat="43.509899" lon="3.747242">
</trkpt>
<trkpt lat="43.509661" lon="3.74663">
</trkpt>
<trkpt lat="43.509607" lon="3.746266">
</trkpt>
<trkpt lat="43.509655" lon="3.746283">
</trkpt>
<trkpt lat="43.509655" lon="3.746283">
</trkpt>
<trkpt lat="43.509607" lon="3.746266">
</trkpt>
<trkpt lat="43.50942" lon="3.746191">
</trkpt>
<trkpt lat="43.508903" lon="3.746148">
</trkpt>
<trkpt lat="43.508669" lon="3.746174">
</trkpt>
<trkpt lat="43.508031" lon="3.746089">
</trkpt>
<trkpt lat="43.506798" lon="3.746062">
</trkpt>
<trkpt lat="43.506572" lon="3.746079">
</trkpt>
<trkpt lat="43.506454" lon="3.746127">
</trkpt>
<trkpt lat="43.506431" lon="3.746073">
</trkpt>
<trkpt lat="43.50639" lon="3.746005">
</trkpt>
<trkpt lat="43.506297" lon="3.745923">
</trkpt>
<trkpt lat="43.506129" lon="3.745703">
</trkpt>
<trkpt lat="43.506032" lon="3.74551">
</trkpt>
<trkpt lat="43.505869" lon="3.745285">
</trkpt>
<trkpt lat="43.505409" lon="3.744512">
</trkpt>
<trkpt lat="43.50518" lon="3.744282">
</trkpt>
<trkpt lat="43.505105" lon="3.744093">
</trkpt>
<trkpt lat="43.505214" lon="3.744082">
</trkpt>
<trkpt lat="43.505359" lon="3.74399">
</trkpt>
<trkpt lat="43.505343" lon="3.743881">
</trkpt>
<trkpt lat="43.505258" lon="3.743756">
</trkpt>
<trkpt lat="43.504986" lon="3.743472">
</trkpt>
<trkpt lat="43.504865" lon="3.743405">
</trkpt>
<trkpt lat="43.504785" lon="3.743164">
</trkpt>
<trkpt lat="43.504472" lon="3.742602">
</trkpt>
<trkpt lat="43.504115" lon="3.742135">
</trkpt>
<trkpt lat="43.503986" lon="3.74193">
</trkpt>
<trkpt lat="43.50393" lon="3.741883">
</trkpt>
<trkpt lat="43.504057" lon="3.741832">
</trkpt>
<trkpt lat="43.504057" lon="3.741832">
</trkpt>
<trkpt lat="43.50393" lon="3.741883">
</trkpt>
<trkpt lat="43.503856" lon="3.741904">
</trkpt>
<trkpt lat="43.503798" lon="3.741942">
</trkpt>
<trkpt lat="43.503736" lon="3.742041">
</trkpt>
<trkpt lat="43.503495" lon="3.742736">
</trkpt>
<trkpt lat="43.503452" lon="3.7428">
</trkpt>
<trkpt lat="43.503397" lon="3.742832">
</trkpt>
<trkpt lat="43.503327" lon="3.742843">
</trkpt>
<trkpt lat="43.503222" lon="3.742827">
</trkpt>
<trkpt lat="43.503117" lon="3.742784">
</trkpt>
<trkpt lat="43.503028" lon="3.74279">
</trkpt>
<trkpt lat="43.502926" lon="3.742849">
</trkpt>
<trkpt lat="43.502796" lon="3.742988">
</trkpt>
<trkpt lat="43.502736" lon="3.743211">
</trkpt>
<trkpt lat="43.502693" lon="3.743685">
</trkpt>
<trkpt lat="43.502549" lon="3.744415">
</trkpt>
<trkpt lat="43.50251" lon="3.744683">
</trkpt>
<trkpt lat="43.502491" lon="3.745193">
</trkpt>
<trkpt lat="43.502269" lon="3.745874">
</trkpt>
<trkpt lat="43.502381" lon="3.746129">
</trkpt>
<trkpt lat="43.502518" lon="3.746443">
</trkpt>
<trkpt lat="43.502627" lon="3.746791">
</trkpt>
<trkpt lat="43.502639" lon="3.747044">
</trkpt>
<trkpt lat="43.5026" lon="3.747215">
</trkpt>
<trkpt lat="43.502545" lon="3.747355">
</trkpt>
<trkpt lat="43.502469" lon="3.747479">
</trkpt>
<trkpt lat="43.502265" lon="3.747864">
</trkpt>
<trkpt lat="43.502195" lon="3.748154">
</trkpt>
<trkpt lat="43.502164" lon="3.748411">
</trkpt>
<trkpt lat="43.502121" lon="3.748615">
</trkpt>
<trkpt lat="43.501938" lon="3.749264">
</trkpt>
<trkpt lat="43.501832" lon="3.749529">
</trkpt>
<trkpt lat="43.501786" lon="3.749602">
</trkpt>
<trkpt lat="43.501689" lon="3.749672">
</trkpt>
<trkpt lat="43.501575" lon="3.749708">
</trkpt>
<trkpt lat="43.501491" lon="3.74973">
</trkpt>
<trkpt lat="43.501444" lon="3.749742">
</trkpt>
<trkpt lat="43.501435" lon="3.749753">
</trkpt>
<trkpt lat="43.501435" lon="3.749753">
</trkpt>
<trkpt lat="43.501374" lon="3.749828">
</trkpt>
<trkpt lat="43.501245" lon="3.749789">
</trkpt>
<trkpt lat="43.500957" lon="3.749805">
</trkpt>
<trkpt lat="43.500752" lon="3.749722">
</trkpt>
<trkpt lat="43.50048" lon="3.749653">
</trkpt>
<trkpt lat="43.49998" lon="3.749566">
</trkpt>
<trkpt lat="43.499796" lon="3.749551">
</trkpt>
<trkpt lat="43.499591" lon="3.749575">
</trkpt>
<trkpt lat="43.499364" lon="3.749675">
</trkpt>
<trkpt lat="43.499089" lon="3.749825">
</trkpt>
<trkpt lat="43.498868" lon="3.750079">
</trkpt>
<trkpt lat="43.498721" lon="3.750151">
</trkpt>
<trkpt lat="43.498621" lon="3.750155">
</trkpt>
<trkpt lat="43.498395" lon="3.750227">
</trkpt>
<trkpt lat="43.498275" lon="3.7502">
</trkpt>
<trkpt lat="43.498132" lon="3.750084">
</trkpt>
<trkpt lat="43.497969" lon="3.749805">
</trkpt>
<trkpt lat="43.497632" lon="3.74959">
</trkpt>
<trkpt lat="43.497527" lon="3.749481">
</trkpt>
<trkpt lat="43.497413" lon="3.749292">
</trkpt>
<trkpt lat="43.497322" lon="3.749171">
</trkpt>
<trkpt lat="43.497157" lon="3.749202">
</trkpt>
<trkpt lat="43.497045" lon="3.749169">
</trkpt>
<trkpt lat="43.496929" lon="3.749068">
</trkpt>
<trkpt lat="43.496855" lon="3.748977">
</trkpt>
<trkpt lat="43.49671" lon="3.748691">
</trkpt>
<trkpt lat="43.496431" lon="3.74826">
</trkpt>
<trkpt lat="43.496357" lon="3.748202">
</trkpt>
<trkpt lat="43.496187" lon="3.748128">
</trkpt>
<trkpt lat="43.496004" lon="3.748025">
</trkpt>
<trkpt lat="43.496039" lon="3.747996">
</trkpt>
<trkpt lat="43.496167" lon="3.747891">
</trkpt>
<trkpt lat="43.496254" lon="3.747758">
</trkpt>
<trkpt lat="43.496254" lon="3.747697">
</trkpt>
<trkpt lat="43.496254" lon="3.747657">
</trkpt>
<trkpt lat="43.496213" lon="3.747556">
</trkpt>
<trkpt lat="43.496094" lon="3.747395">
</trkpt>
<trkpt lat="43.496059" lon="3.747324">
</trkpt>
<trkpt lat="43.496059" lon="3.747324">
</trkpt>
<trkpt lat="43.496094" lon="3.747395">
</trkpt>
<trkpt lat="43.495668" lon="3.747096">
</trkpt>
<trkpt lat="43.495469" lon="3.74671">
</trkpt>
<trkpt lat="43.495346" lon="3.746401">
</trkpt>
<trkpt lat="43.495363" lon="3.746281">
</trkpt>
<trkpt lat="43.495366" lon="3.745846">
</trkpt>
<trkpt lat="43.495402" lon="3.745618">
</trkpt>
<trkpt lat="43.495668" lon="3.74492">
</trkpt>
<trkpt lat="43.495819" lon="3.744607">
</trkpt>
<trkpt lat="43.495959" lon="3.744148">
</trkpt>
<trkpt lat="43.495976" lon="3.74389">
</trkpt>
<trkpt lat="43.495953" lon="3.743593">
</trkpt>
<trkpt lat="43.495906" lon="3.743334">
</trkpt>
<trkpt lat="43.495822" lon="3.743184">
</trkpt>
<trkpt lat="43.49579" lon="3.743088">
</trkpt>
<trkpt lat="43.495797" lon="3.743037">
</trkpt>
<trkpt lat="43.495831" lon="3.743023">
</trkpt>
<trkpt lat="43.495861" lon="3.74301">
</trkpt>
<trkpt lat="43.49589" lon="3.743033">
</trkpt>
<trkpt lat="43.496062" lon="3.742643">
</trkpt>
<trkpt lat="43.496051" lon="3.742575">
</trkpt>
<trkpt lat="43.496114" lon="3.742442">
</trkpt>
<trkpt lat="43.496163" lon="3.742381">
</trkpt>
<trkpt lat="43.496178" lon="3.742181">
</trkpt>
<trkpt lat="43.496213" lon="3.742035">
</trkpt>
<trkpt lat="43.496172" lon="3.741793">
</trkpt>
<trkpt lat="43.496203" lon="3.741654">
</trkpt>
<trkpt lat="43.49627" lon="3.741494">
</trkpt>
<trkpt lat="43.496304" lon="3.741332">
</trkpt>
<trkpt lat="43.496298" lon="3.740939">
</trkpt>
<trkpt lat="43.496249" lon="3.740561">
</trkpt>
<trkpt lat="43.49627" lon="3.740399">
</trkpt>
<trkpt lat="43.496301" lon="3.740305">
</trkpt>
<trkpt lat="43.496516" lon="3.739803">
</trkpt>
<trkpt lat="43.49663" lon="3.739492">
</trkpt>
<trkpt lat="43.496809" lon="3.73901">
</trkpt>
<trkpt lat="43.496896" lon="3.738713">
</trkpt>
<trkpt lat="43.497122" lon="3.738263">
</trkpt>
<trkpt lat="43.497163" lon="3.738107">
</trkpt>
<trkpt lat="43.497208" lon="3.737843">
</trkpt>
<trkpt lat="43.497377" lon="3.737648">
</trkpt>
<trkpt lat="43.497315" lon="3.737167">
</trkpt>
<trkpt lat="43.497255" lon="3.736714">
</trkpt>
<trkpt lat="43.497219" lon="3.736599">
</trkpt>
<trkpt lat="43.497252" lon="3.736492">
</trkpt>
<trkpt lat="43.497249" lon="3.736391">
</trkpt>
<trkpt lat="43.497297" lon="3.736291">
</trkpt>
<trkpt lat="43.497314" lon="3.736202">
</trkpt>
<trkpt lat="43.497375" lon="3.736137">
</trkpt>
<trkpt lat="43.497375" lon="3.736071">
</trkpt>
<trkpt lat="43.497322" lon="3.735967">
</trkpt>
<trkpt lat="43.4973" lon="3.735886">
</trkpt>
<trkpt lat="43.497314" lon="3.73582">
</trkpt>
<trkpt lat="43.497263" lon="3.735674">
</trkpt>
<trkpt lat="43.497115" lon="3.735312">
</trkpt>
<trkpt lat="43.497115" lon="3.735312">
</trkpt>
<trkpt lat="43.497056" lon="3.735168">
</trkpt>
<trkpt lat="43.497011" lon="3.735014">
</trkpt>
<trkpt lat="43.497011" lon="3.734781">
</trkpt>
<trkpt lat="43.49695" lon="3.734543">
</trkpt>
<trkpt lat="43.496947" lon="3.734445">
</trkpt>
<trkpt lat="43.497024" lon="3.734302">
</trkpt>
<trkpt lat="43.497017" lon="3.734231">
</trkpt>
<trkpt lat="43.496958" lon="3.734092">
</trkpt>
<trkpt lat="43.496909" lon="3.734067">
</trkpt>
<trkpt lat="43.496799" lon="3.733909">
</trkpt>
<trkpt lat="43.49681" lon="3.733836">
</trkpt>
<trkpt lat="43.49679" lon="3.73372">
</trkpt>
<trkpt lat="43.496705" lon="3.733537">
</trkpt>
<trkpt lat="43.496657" lon="3.733289">
</trkpt>
<trkpt lat="43.496582" lon="3.733168">
</trkpt>
<trkpt lat="43.49645" lon="3.732976">
</trkpt>
<trkpt lat="43.496113" lon="3.732801">
</trkpt>
<trkpt lat="43.495905" lon="3.732729">
</trkpt>
<trkpt lat="43.49574" lon="3.732419">
</trkpt>
<trkpt lat="43.495695" lon="3.732168">
</trkpt>
<trkpt lat="43.495488" lon="3.731655">
</trkpt>
<trkpt lat="43.49543" lon="3.731666">
</trkpt>
<trkpt lat="43.495286" lon="3.731581">
</trkpt>
<trkpt lat="43.495266" lon="3.731157">
</trkpt>
<trkpt lat="43.495237" lon="3.730924">
</trkpt>
<trkpt lat="43.495284" lon="3.730647">
</trkpt>
<trkpt lat="43.495274" lon="3.730379">
</trkpt>
<trkpt lat="43.495151" lon="3.730218">
</trkpt>
<trkpt lat="43.495186" lon="3.729955">
</trkpt>
<trkpt lat="43.495148" lon="3.729686">
</trkpt>
<trkpt lat="43.495067" lon="3.729666">
</trkpt>
<trkpt lat="43.494971" lon="3.729545">
</trkpt>
<trkpt lat="43.494893" lon="3.729526">
</trkpt>
<trkpt lat="43.494801" lon="3.729533">
</trkpt>
<trkpt lat="43.494585" lon="3.729614">
</trkpt>
<trkpt lat="43.494068" lon="3.72946">
</trkpt>
<trkpt lat="43.49396" lon="3.72945">
</trkpt>
<trkpt lat="43.493768" lon="3.729491">
</trkpt>
<trkpt lat="43.493653" lon="3.729537">
</trkpt>
<trkpt lat="43.493275" lon="3.729811">
</trkpt>
<trkpt lat="43.492823" lon="3.729755">
</trkpt>
<trkpt lat="43.492715" lon="3.729758">
</trkpt>
<trkpt lat="43.492715" lon="3.729758">
</trkpt>
<trkpt lat="43.492665" lon="3.729759">
</trkpt>
<trkpt lat="43.492492" lon="3.729788">
</trkpt>
<trkpt lat="43.492359" lon="3.729836">
</trkpt>
<trkpt lat="43.492062" lon="3.730033">
</trkpt>
<trkpt lat="43.491767" lon="3.730289">
</trkpt>
<trkpt lat="43.491672" lon="3.730788">
</trkpt>
<trkpt lat="43.49161" lon="3.731209">
</trkpt>
<trkpt lat="43.491577" lon="3.731273">
</trkpt>
<trkpt lat="43.491228" lon="3.73146">
</trkpt>
<trkpt lat="43.491009" lon="3.731746">
</trkpt>
<trkpt lat="43.49095" lon="3.731915">
</trkpt>
<trkpt lat="43.490908" lon="3.732045">
</trkpt>
<trkpt lat="43.49086" lon="3.732134">
</trkpt>
<trkpt lat="43.490754" lon="3.732311">
</trkpt>
<trkpt lat="43.490739" lon="3.732325">
</trkpt>
<trkpt lat="43.490639" lon="3.732436">
</trkpt>
<trkpt lat="43.490636" lon="3.732477">
</trkpt>
<trkpt lat="43.490614" lon="3.732683">
</trkpt>
<trkpt lat="43.490643" lon="3.733099">
</trkpt>
<trkpt lat="43.490611" lon="3.733274">
</trkpt>
<trkpt lat="43.490518" lon="3.733417">
</trkpt>
<trkpt lat="43.490431" lon="3.733425">
</trkpt>
<trkpt lat="43.490404" lon="3.733411">
</trkpt>
<trkpt lat="43.490404" lon="3.733411">
</trkpt>
<trkpt lat="43.490266" lon="3.733336">
</trkpt>
<trkpt lat="43.490189" lon="3.733249">
</trkpt>
<trkpt lat="43.490117" lon="3.732948">
</trkpt>
<trkpt lat="43.490062" lon="3.732828">
</trkpt>
<trkpt lat="43.490066" lon="3.732742">
</trkpt>
<trkpt lat="43.490049" lon="3.732726">
</trkpt>
<trkpt lat="43.489797" lon="3.73252">
</trkpt>
<trkpt lat="43.489727" lon="3.732242">
</trkpt>
<trkpt lat="43.489804" lon="3.73213">
</trkpt>
<trkpt lat="43.48982" lon="3.732006">
</trkpt>
<trkpt lat="43.489803" lon="3.731319">
</trkpt>
<trkpt lat="43.489767" lon="3.731141">
</trkpt>
<trkpt lat="43.489704" lon="3.731012">
</trkpt>
<trkpt lat="43.489506" lon="3.730746">
</trkpt>
<trkpt lat="43.489077" lon="3.730308">
</trkpt>
<trkpt lat="43.488906" lon="3.730211">
</trkpt>
<trkpt lat="43.488784" lon="3.730196">
</trkpt>
<trkpt lat="43.488293" lon="3.730408">
</trkpt>
<trkpt lat="43.488218" lon="3.730392">
</trkpt>
<trkpt lat="43.488167" lon="3.730299">
</trkpt>
<trkpt lat="43.488134" lon="3.729855">
</trkpt>
<trkpt lat="43.488087" lon="3.72955">
</trkpt>
<trkpt lat="43.487976" lon="3.729052">
</trkpt>
<trkpt lat="43.487905" lon="3.728924">
</trkpt>
<trkpt lat="43.487834" lon="3.728859">
</trkpt>
<trkpt lat="43.487834" lon="3.728859">
</trkpt>
<trkpt lat="43.487824" lon="3.72885">
</trkpt>
<trkpt lat="43.487503" lon="3.728748">
</trkpt>
<trkpt lat="43.48736" lon="3.728679">
</trkpt>
<trkpt lat="43.487317" lon="3.728602">
</trkpt>
<trkpt lat="43.487344" lon="3.728488">
</trkpt>
<trkpt lat="43.487564" lon="3.728041">
</trkpt>
<trkpt lat="43.487662" lon="3.727767">
</trkpt>
<trkpt lat="43.487648" lon="3.727594">
</trkpt>
<trkpt lat="43.487591" lon="3.727442">
</trkpt>
<trkpt lat="43.487369" lon="3.7272">
</trkpt>
<trkpt lat="43.487381" lon="3.727177">
</trkpt>
</trkseg>
</trk>
</gpx>