<?xml version="1.0" encoding="UTF-8"?>
<gpx version="1.0" creator="Calcul itineraires - www.calculitineraires.fr" xmlns:xsi="http://www.w3.org/2001/XMLSchema-instance" xmlns="http://www.topografix.com/GPX/1/0" xsi:schemaLocation="http://www.topografix.com/GPX/1/0 http://www.topografix.com/GPX/1/0/gpx.xsd">
<trk>
<name>xs</name>
<trkseg>
<trkpt lat="43.45576653152015" lon="3.752657358719538">
</trkpt>
<trkpt lat="43.455791" lon="3.75269">
</trkpt>
<trkpt lat="43.455845" lon="3.752614">
</trkpt>
<trkpt lat="43.456058" lon="3.752354">
</trkpt>
<trkpt lat="43.456133" lon="3.752291">
</trkpt>
<trkpt lat="43.456227" lon="3.752255">
</trkpt>
<trkpt lat="43.456447" lon="3.751791">
</trkpt>
<trkpt lat="43.45654" lon="3.751539">
</trkpt>
<trkpt lat="43.456667" lon="3.75111">
</trkpt>
<trkpt lat="43.456971" lon="3.750388">
</trkpt>
<trkpt lat="43.457134" lon="3.749908">
</trkpt>
<trkpt lat="43.457298" lon="3.749546">
</trkpt>
<trkpt lat="43.457426" lon="3.748993">
</trkpt>
<trkpt lat="43.457498" lon="3.748838">
</trkpt>
<trkpt lat="43.457759" lon="3.748401">
</trkpt>
<trkpt lat="43.457985" lon="3.747791">
</trkpt>
<trkpt lat="43.458147" lon="3.747443">
</trkpt>
<trkpt lat="43.45824" lon="3.747271">
</trkpt>
<trkpt lat="43.458558" lon="3.746928">
</trkpt>
<trkpt lat="43.458692" lon="3.746724">
</trkpt>
<trkpt lat="43.458807" lon="3.74659">
</trkpt>
<trkpt lat="43.459163" lon="3.74651">
</trkpt>
<trkpt lat="43.459268" lon="3.746271">
</trkpt>
<trkpt lat="43.459426" lon="3.745978">
</trkpt>
<trkpt lat="43.459693" lon="3.745557">
</trkpt>
<trkpt lat="43.459796" lon="3.745421">
</trkpt>
<trkpt lat="43.460061" lon="3.745209">
</trkpt>
<trkpt lat="43.460129" lon="3.745123">
</trkpt>
<trkpt lat="43.460228" lon="3.744876">
</trkpt>
<trkpt lat="43.460353" lon="3.744465">
</trkpt>
<trkpt lat="43.460419" lon="3.744337">
</trkpt>
<trkpt lat="43.460501" lon="3.744246">
</trkpt>
<trkpt lat="43.460588" lon="3.744179">
</trkpt>
<trkpt lat="43.460851" lon="3.744268">
</trkpt>
<trkpt lat="43.460851" lon="3.744268">
</trkpt>
<trkpt lat="43.460989" lon="3.744316">
</trkpt>
<trkpt lat="43.461266" lon="3.74449">
</trkpt>
<trkpt lat="43.461379" lon="3.744503">
</trkpt>
<trkpt lat="43.46153" lon="3.744434">
</trkpt>
<trkpt lat="43.46169" lon="3.744326">
</trkpt>
<trkpt lat="43.461622" lon="3.744029">
</trkpt>
<trkpt lat="43.461624" lon="3.743935">
</trkpt>
<trkpt lat="43.461684" lon="3.743739">
</trkpt>
<trkpt lat="43.461686" lon="3.743608">
</trkpt>
<trkpt lat="43.461673" lon="3.74353">
</trkpt>
<trkpt lat="43.46162" lon="3.743406">
</trkpt>
<trkpt lat="43.461439" lon="3.743087">
</trkpt>
<trkpt lat="43.461339" lon="3.742955">
</trkpt>
<trkpt lat="43.461339" lon="3.742955">
</trkpt>
<trkpt lat="43.461164" lon="3.743007">
</trkpt>
<trkpt lat="43.461073" lon="3.742967">
</trkpt>
<trkpt lat="43.460987" lon="3.742873">
</trkpt>
<trkpt lat="43.460912" lon="3.742838">
</trkpt>
<trkpt lat="43.460912" lon="3.742838">
</trkpt>
<trkpt lat="43.460888" lon="3.742827">
</trkpt>
<trkpt lat="43.460771" lon="3.742722">
</trkpt>
<trkpt lat="43.460606" lon="3.742749">
</trkpt>
<trkpt lat="43.46059" lon="3.742658">
</trkpt>
<trkpt lat="43.460627" lon="3.742494">
</trkpt>
<trkpt lat="43.460723" lon="3.742339">
</trkpt>
<trkpt lat="43.460766" lon="3.742217">
</trkpt>
<trkpt lat="43.460815" lon="3.742009">
</trkpt>
<trkpt lat="43.460807" lon="3.741873">
</trkpt>
<trkpt lat="43.46078" lon="3.741801">
</trkpt>
<trkpt lat="43.460808" lon="3.74171">
</trkpt>
<trkpt lat="43.460846" lon="3.741688">
</trkpt>
<trkpt lat="43.460846" lon="3.741688">
</trkpt>
<trkpt lat="43.460873" lon="3.741672">
</trkpt>
<trkpt lat="43.461078" lon="3.741682">
</trkpt>
<trkpt lat="43.461222" lon="3.741663">
</trkpt>
<trkpt lat="43.461378" lon="3.741773">
</trkpt>
<trkpt lat="43.461565" lon="3.741797">
</trkpt>
<trkpt lat="43.4617" lon="3.741888">
</trkpt>
<trkpt lat="43.461727" lon="3.741929">
</trkpt>
<trkpt lat="43.461727" lon="3.741929">
</trkpt>
<trkpt lat="43.4617" lon="3.741888">
</trkpt>
<trkpt lat="43.461565" lon="3.741797">
</trkpt>
<trkpt lat="43.461378" lon="3.741773">
</trkpt>
<trkpt lat="43.461222" lon="3.741663">
</trkpt>
<trkpt lat="43.461078" lon="3.741682">
</trkpt>
<trkpt lat="43.460873" lon="3.741672">
</trkpt>
<trkpt lat="43.460808" lon="3.74171">
</trkpt>
<trkpt lat="43.46078" lon="3.741801">
</trkpt>
<trkpt lat="43.460807" lon="3.741873">
</trkpt>
<trkpt lat="43.460815" lon="3.742009">
</trkpt>
<trkpt lat="43.460766" lon="3.742217">
</trkpt>
<trkpt lat="43.460927" lon="3.74236">
</trkpt>
<trkpt lat="43.461076" lon="3.742642">
</trkpt>
<trkpt lat="43.461339" lon="3.742955">
</trkpt>
<trkpt lat="43.461439" lon="3.743087">
</trkpt>
<trkpt lat="43.46162" lon="3.743406">
</trkpt>
<trkpt lat="43.461673" lon="3.74353">
</trkpt>
<trkpt lat="43.461686" lon="3.743608">
</trkpt>
<trkpt lat="43.461684" lon="3.743739">
</trkpt>
<trkpt lat="43.461624" lon="3.743935">
</trkpt>
<trkpt lat="43.461622" lon="3.744029">
</trkpt>
<trkpt lat="43.46169" lon="3.744326">
</trkpt>
<trkpt lat="43.461881" lon="3.744243">
</trkpt>
<trkpt lat="43.462056" lon="3.744222">
</trkpt>
<trkpt lat="43.462272" lon="3.74427">
</trkpt>
<trkpt lat="43.462306" lon="3.74427">
</trkpt>
<trkpt lat="43.462306" lon="3.74427">
</trkpt>
<trkpt lat="43.462465" lon="3.744273">
</trkpt>
<trkpt lat="43.462936" lon="3.744471">
</trkpt>
<trkpt lat="43.463068" lon="3.744554">
</trkpt>
<trkpt lat="43.463181" lon="3.744691">
</trkpt>
<trkpt lat="43.463257" lon="3.744849">
</trkpt>
<trkpt lat="43.463351" lon="3.745257">
</trkpt>
<trkpt lat="43.463401" lon="3.745399">
</trkpt>
<trkpt lat="43.463491" lon="3.745517">
</trkpt>
<trkpt lat="43.463606" lon="3.74559">
</trkpt>
<trkpt lat="43.463812" lon="3.745641">
</trkpt>
<trkpt lat="43.4641" lon="3.745775">
</trkpt>
<trkpt lat="43.464639" lon="3.746215">
</trkpt>
<trkpt lat="43.464772" lon="3.746397">
</trkpt>
<trkpt lat="43.464879" lon="3.746617">
</trkpt>
<trkpt lat="43.464953" lon="3.746821">
</trkpt>
<trkpt lat="43.465089" lon="3.746909">
</trkpt>
<trkpt lat="43.465383" lon="3.746933">
</trkpt>
<trkpt lat="43.465553" lon="3.747019">
</trkpt>
<trkpt lat="43.465652" lon="3.747105">
</trkpt>
<trkpt lat="43.465788" lon="3.747314">
</trkpt>
<trkpt lat="43.465876" lon="3.747518">
</trkpt>
<trkpt lat="43.465967" lon="3.747585">
</trkpt>
<trkpt lat="43.466068" lon="3.747631">
</trkpt>
<trkpt lat="43.466166" lon="3.747599">
</trkpt>
<trkpt lat="43.466403" lon="3.747344">
</trkpt>
<trkpt lat="43.466551" lon="3.747317">
</trkpt>
<trkpt lat="43.466758" lon="3.747357">
</trkpt>
<trkpt lat="43.466894" lon="3.747448">
</trkpt>
<trkpt lat="43.466981" lon="3.747687">
</trkpt>
<trkpt lat="43.467071" lon="3.748073">
</trkpt>
<trkpt lat="43.467149" lon="3.748277">
</trkpt>
<trkpt lat="43.467194" lon="3.748701">
</trkpt>
<trkpt lat="43.467238" lon="3.748857">
</trkpt>
<trkpt lat="43.467305" lon="3.749004">
</trkpt>
<trkpt lat="43.467305" lon="3.749004">
</trkpt>
<trkpt lat="43.467348" lon="3.749101">
</trkpt>
<trkpt lat="43.46761" lon="3.749401">
</trkpt>
<trkpt lat="43.467744" lon="3.749522">
</trkpt>
<trkpt lat="43.467892" lon="3.749621">
</trkpt>
<trkpt lat="43.468531" lon="3.74968">
</trkpt>
<trkpt lat="43.468981" lon="3.749744">
</trkpt>
<trkpt lat="43.469549" lon="3.74976">
</trkpt>
<trkpt lat="43.469751" lon="3.749789">
</trkpt>
<trkpt lat="43.469733" lon="3.74999">
</trkpt>
<trkpt lat="43.470226" lon="3.750377">
</trkpt>
<trkpt lat="43.470279" lon="3.750521">
</trkpt>
<trkpt lat="43.47029" lon="3.750635">
</trkpt>
<trkpt lat="43.470165" lon="3.750826">
</trkpt>
<trkpt lat="43.47015" lon="3.75102">
</trkpt>
<trkpt lat="43.470053" lon="3.751235">
</trkpt>
<trkpt lat="43.470016" lon="3.751426">
</trkpt>
<trkpt lat="43.470039" lon="3.751491">
</trkpt>
<trkpt lat="43.469996" lon="3.751597">
</trkpt>
<trkpt lat="43.470074" lon="3.751738">
</trkpt>
<trkpt lat="43.470072" lon="3.7519">
</trkpt>
<trkpt lat="43.469899" lon="3.751966">
</trkpt>
<trkpt lat="43.469812" lon="3.752337">
</trkpt>
<trkpt lat="43.469923" lon="3.75249">
</trkpt>
<trkpt lat="43.46994" lon="3.752581">
</trkpt>
<trkpt lat="43.469891" lon="3.752654">
</trkpt>
<trkpt lat="43.469899" lon="3.752917">
</trkpt>
<trkpt lat="43.46999" lon="3.753165">
</trkpt>
<trkpt lat="43.469954" lon="3.753381">
</trkpt>
<trkpt lat="43.469916" lon="3.753495">
</trkpt>
<trkpt lat="43.469758" lon="3.753415">
</trkpt>
<trkpt lat="43.469629" lon="3.753756">
</trkpt>
<trkpt lat="43.469604" lon="3.753745">
</trkpt>
<trkpt lat="43.469604" lon="3.753745">
</trkpt>
<trkpt lat="43.469629" lon="3.753756">
</trkpt>
<trkpt lat="43.469937" lon="3.754203">
</trkpt>
<trkpt lat="43.469812" lon="3.755297">
</trkpt>
<trkpt lat="43.469719" lon="3.755609">
</trkpt>
<trkpt lat="43.469314" lon="3.756585">
</trkpt>
<trkpt lat="43.469301" lon="3.75688">
</trkpt>
<trkpt lat="43.469365" lon="3.757189">
</trkpt>
<trkpt lat="43.46951" lon="3.757451">
</trkpt>
<trkpt lat="43.469791" lon="3.757776">
</trkpt>
<trkpt lat="43.469927" lon="3.757902">
</trkpt>
<trkpt lat="43.469927" lon="3.757902">
</trkpt>
<trkpt lat="43.47014" lon="3.758101">
</trkpt>
<trkpt lat="43.470443" lon="3.758675">
</trkpt>
<trkpt lat="43.470644" lon="3.758887">
</trkpt>
<trkpt lat="43.47122" lon="3.759123">
</trkpt>
<trkpt lat="43.471614" lon="3.759254">
</trkpt>
<trkpt lat="43.472185" lon="3.759512">
</trkpt>
<trkpt lat="43.472664" lon="3.759638">
</trkpt>
<trkpt lat="43.47347" lon="3.759933">
</trkpt>
<trkpt lat="43.473964" lon="3.760002">
</trkpt>
<trkpt lat="43.47436" lon="3.759949">
</trkpt>
<trkpt lat="43.47457" lon="3.759804">
</trkpt>
<trkpt lat="43.474663" lon="3.759632">
</trkpt>
<trkpt lat="43.474793" lon="3.759579">
</trkpt>
<trkpt lat="43.474841" lon="3.759661">
</trkpt>
<trkpt lat="43.474778" lon="3.760327">
</trkpt>
<trkpt lat="43.474802" lon="3.76053">
</trkpt>
<trkpt lat="43.474849" lon="3.760668">
</trkpt>
<trkpt lat="43.474969" lon="3.760796">
</trkpt>
<trkpt lat="43.475037" lon="3.76107">
</trkpt>
<trkpt lat="43.475006" lon="3.761552">
</trkpt>
<trkpt lat="43.47492" lon="3.76196">
</trkpt>
<trkpt lat="43.474764" lon="3.762282">
</trkpt>
<trkpt lat="43.474581" lon="3.762408">
</trkpt>
<trkpt lat="43.474535" lon="3.762553">
</trkpt>
<trkpt lat="43.47458" lon="3.762639">
</trkpt>
<trkpt lat="43.474737" lon="3.762757">
</trkpt>
<trkpt lat="43.475041" lon="3.762879">
</trkpt>
<trkpt lat="43.475402" lon="3.762882">
</trkpt>
<trkpt lat="43.475559" lon="3.762875">
</trkpt>
<trkpt lat="43.475953" lon="3.762725">
</trkpt>
<trkpt lat="43.476029" lon="3.76275">
</trkpt>
<trkpt lat="43.476091" lon="3.762818">
</trkpt>
<trkpt lat="43.476147" lon="3.762921">
</trkpt>
<trkpt lat="43.476258" lon="3.762764">
</trkpt>
<trkpt lat="43.476371" lon="3.762702">
</trkpt>
<trkpt lat="43.476461" lon="3.762699">
</trkpt>
<trkpt lat="43.476817" lon="3.762847">
</trkpt>
<trkpt lat="43.477245" lon="3.763112">
</trkpt>
<trkpt lat="43.477716" lon="3.763437">
</trkpt>
<trkpt lat="43.477897" lon="3.763445">
</trkpt>
<trkpt lat="43.478218" lon="3.76323">
</trkpt>
<trkpt lat="43.478285" lon="3.763099">
</trkpt>
<trkpt lat="43.478445" lon="3.762622">
</trkpt>
<trkpt lat="43.47858" lon="3.762179">
</trkpt>
<trkpt lat="43.478621" lon="3.761833">
</trkpt>
<trkpt lat="43.478629" lon="3.761509">
</trkpt>
<trkpt lat="43.478567" lon="3.761018">
</trkpt>
<trkpt lat="43.478567" lon="3.760846">
</trkpt>
<trkpt lat="43.478602" lon="3.760642">
</trkpt>
<trkpt lat="43.478623" lon="3.760291">
</trkpt>
<trkpt lat="43.478769" lon="3.759572">
</trkpt>
<trkpt lat="43.47882" lon="3.759457">
</trkpt>
<trkpt lat="43.478965" lon="3.759312">
</trkpt>
<trkpt lat="43.478965" lon="3.759312">
</trkpt>
<trkpt lat="43.479061" lon="3.759215">
</trkpt>
<trkpt lat="43.47912" lon="3.759078">
</trkpt>
<trkpt lat="43.479164" lon="3.758858">
</trkpt>
<trkpt lat="43.479195" lon="3.758529">
</trkpt>
<trkpt lat="43.479205" lon="3.75822">
</trkpt>
<trkpt lat="43.479151" lon="3.75778">
</trkpt>
<trkpt lat="43.47904" lon="3.757276">
</trkpt>
<trkpt lat="43.478993" lon="3.756986">
</trkpt>
<trkpt lat="43.479016" lon="3.756471">
</trkpt>
<trkpt lat="43.479003" lon="3.755685">
</trkpt>
<trkpt lat="43.478925" lon="3.755185">
</trkpt>
<trkpt lat="43.478814" lon="3.754932">
</trkpt>
<trkpt lat="43.478454" lon="3.754371">
</trkpt>
<trkpt lat="43.478413" lon="3.7541">
</trkpt>
<trkpt lat="43.478336" lon="3.753905">
</trkpt>
<trkpt lat="43.478234" lon="3.753692">
</trkpt>
<trkpt lat="43.47814" lon="3.75363">
</trkpt>
<trkpt lat="43.478055" lon="3.753617">
</trkpt>
<trkpt lat="43.477733" lon="3.753694">
</trkpt>
<trkpt lat="43.477658" lon="3.753627">
</trkpt>
<trkpt lat="43.477461" lon="3.753182">
</trkpt>
<trkpt lat="43.477387" lon="3.752587">
</trkpt>
<trkpt lat="43.477401" lon="3.752541">
</trkpt>
<trkpt lat="43.477373" lon="3.752332">
</trkpt>
<trkpt lat="43.477288" lon="3.752216">
</trkpt>
<trkpt lat="43.477257" lon="3.752144">
</trkpt>
<trkpt lat="43.477091" lon="3.752095">
</trkpt>
<trkpt lat="43.47706" lon="3.751822">
</trkpt>
<trkpt lat="43.477089" lon="3.751393">
</trkpt>
<trkpt lat="43.477074" lon="3.751181">
</trkpt>
<trkpt lat="43.477041" lon="3.750975">
</trkpt>
<trkpt lat="43.477008" lon="3.750904">
</trkpt>
<trkpt lat="43.477008" lon="3.750904">
</trkpt>
<trkpt lat="43.476976" lon="3.750836">
</trkpt>
<trkpt lat="43.476939" lon="3.750913">
</trkpt>
<trkpt lat="43.476885" lon="3.75095">
</trkpt>
<trkpt lat="43.476823" lon="3.750929">
</trkpt>
<trkpt lat="43.476449" lon="3.750366">
</trkpt>
<trkpt lat="43.47632" lon="3.750264">
</trkpt>
<trkpt lat="43.476036" lon="3.750111">
</trkpt>
<trkpt lat="43.475826" lon="3.750028">
</trkpt>
<trkpt lat="43.475606" lon="3.749969">
</trkpt>
<trkpt lat="43.475279" lon="3.749816">
</trkpt>
<trkpt lat="43.475146" lon="3.749793">
</trkpt>
<trkpt lat="43.474563" lon="3.749583">
</trkpt>
<trkpt lat="43.474329" lon="3.749475">
</trkpt>
<trkpt lat="43.474314" lon="3.749455">
</trkpt>
<trkpt lat="43.474049" lon="3.749412">
</trkpt>
<trkpt lat="43.473107" lon="3.749363">
</trkpt>
<trkpt lat="43.47299" lon="3.749433">
</trkpt>
<trkpt lat="43.472765" lon="3.74969">
</trkpt>
<trkpt lat="43.472654" lon="3.74975">
</trkpt>
<trkpt lat="43.472152" lon="3.749881">
</trkpt>
<trkpt lat="43.471683" lon="3.749979">
</trkpt>
<trkpt lat="43.471355" lon="3.749954">
</trkpt>
<trkpt lat="43.471054" lon="3.750139">
</trkpt>
<trkpt lat="43.470886" lon="3.75012">
</trkpt>
<trkpt lat="43.470448" lon="3.749964">
</trkpt>
<trkpt lat="43.47015" lon="3.749903">
</trkpt>
<trkpt lat="43.470136" lon="3.749898">
</trkpt>
<trkpt lat="43.470136" lon="3.749897">
</trkpt>
<trkpt lat="43.469876" lon="3.749806">
</trkpt>
<trkpt lat="43.469751" lon="3.749789">
</trkpt>
<trkpt lat="43.469549" lon="3.74976">
</trkpt>
<trkpt lat="43.468981" lon="3.749744">
</trkpt>
<trkpt lat="43.468531" lon="3.74968">
</trkpt>
<trkpt lat="43.467892" lon="3.749621">
</trkpt>
<trkpt lat="43.467744" lon="3.749522">
</trkpt>
<trkpt lat="43.46761" lon="3.749401">
</trkpt>
<trkpt lat="43.467348" lon="3.749101">
</trkpt>
<trkpt lat="43.467244" lon="3.749126">
</trkpt>
<trkpt lat="43.467123" lon="3.749121">
</trkpt>
<trkpt lat="43.466958" lon="3.749184">
</trkpt>
<trkpt lat="43.466787" lon="3.749221">
</trkpt>
<trkpt lat="43.46673" lon="3.749205">
</trkpt>
<trkpt lat="43.46668" lon="3.74929">
</trkpt>
<trkpt lat="43.466649" lon="3.749313">
</trkpt>
<trkpt lat="43.466609" lon="3.749315">
</trkpt>
<trkpt lat="43.466535" lon="3.74927">
</trkpt>
<trkpt lat="43.466497" lon="3.749275">
</trkpt>
<trkpt lat="43.466426" lon="3.74933">
</trkpt>
<trkpt lat="43.466396" lon="3.749325">
</trkpt>
<trkpt lat="43.466341" lon="3.749227">
</trkpt>
<trkpt lat="43.466285" lon="3.749196">
</trkpt>
<trkpt lat="43.466195" lon="3.749196">
</trkpt>
<trkpt lat="43.466134" lon="3.749154">
</trkpt>
<trkpt lat="43.465772" lon="3.749079">
</trkpt>
<trkpt lat="43.465744" lon="3.749095">
</trkpt>
<trkpt lat="43.465696" lon="3.749056">
</trkpt>
<trkpt lat="43.465592" lon="3.749099">
</trkpt>
<trkpt lat="43.465493" lon="3.749082">
</trkpt>
<trkpt lat="43.465468" lon="3.74906">
</trkpt>
<trkpt lat="43.465322" lon="3.749047">
</trkpt>
<trkpt lat="43.465256" lon="3.749076">
</trkpt>
<trkpt lat="43.464939" lon="3.749048">
</trkpt>
<trkpt lat="43.464885" lon="3.749083">
</trkpt>
<trkpt lat="43.464826" lon="3.749056">
</trkpt>
<trkpt lat="43.464785" lon="3.749063">
</trkpt>
<trkpt lat="43.46459" lon="3.749016">
</trkpt>
<trkpt lat="43.464549" lon="3.749044">
</trkpt>
<trkpt lat="43.464407" lon="3.749059">
</trkpt>
<trkpt lat="43.464374" lon="3.749031">
</trkpt>
<trkpt lat="43.464298" lon="3.749064">
</trkpt>
<trkpt lat="43.464166" lon="3.749072">
</trkpt>
<trkpt lat="43.46414" lon="3.749094">
</trkpt>
<trkpt lat="43.464065" lon="3.749083">
</trkpt>
<trkpt lat="43.464017" lon="3.74905">
</trkpt>
<trkpt lat="43.463927" lon="3.749131">
</trkpt>
<trkpt lat="43.463926" lon="3.749196">
</trkpt>
<trkpt lat="43.463892" lon="3.749266">
</trkpt>
<trkpt lat="43.463801" lon="3.749193">
</trkpt>
<trkpt lat="43.463801" lon="3.749193">
</trkpt>
<trkpt lat="43.463471" lon="3.748929">
</trkpt>
<trkpt lat="43.463179" lon="3.748875">
</trkpt>
<trkpt lat="43.462428" lon="3.748789">
</trkpt>
<trkpt lat="43.462203" lon="3.748715">
</trkpt>
<trkpt lat="43.462144" lon="3.748696">
</trkpt>
<trkpt lat="43.461929" lon="3.748752">
</trkpt>
<trkpt lat="43.461735" lon="3.748826">
</trkpt>
<trkpt lat="43.461449" lon="3.748778">
</trkpt>
<trkpt lat="43.461253" lon="3.748709">
</trkpt>
<trkpt lat="43.460904" lon="3.748636">
</trkpt>
<trkpt lat="43.460746" lon="3.74868">
</trkpt>
<trkpt lat="43.460536" lon="3.74877">
</trkpt>
<trkpt lat="43.460417" lon="3.748881">
</trkpt>
<trkpt lat="43.460195" lon="3.749076">
</trkpt>
<trkpt lat="43.459959" lon="3.749337">
</trkpt>
<trkpt lat="43.459414" lon="3.749646">
</trkpt>
<trkpt lat="43.459231" lon="3.749739">
</trkpt>
<trkpt lat="43.459125" lon="3.749769">
</trkpt>
<trkpt lat="43.458842" lon="3.749883">
</trkpt>
<trkpt lat="43.458776" lon="3.749959">
</trkpt>
<trkpt lat="43.458678" lon="3.750147">
</trkpt>
<trkpt lat="43.458589" lon="3.750243">
</trkpt>
<trkpt lat="43.458456" lon="3.750342">
</trkpt>
<trkpt lat="43.458316" lon="3.75041">
</trkpt>
<trkpt lat="43.458129" lon="3.750431">
</trkpt>
<trkpt lat="43.457825" lon="3.750632">
</trkpt>
<trkpt lat="43.457605" lon="3.750806">
</trkpt>
<trkpt lat="43.457331" lon="3.751106">
</trkpt>
<trkpt lat="43.45716" lon="3.751406">
</trkpt>
<trkpt lat="43.457043" lon="3.751785">
</trkpt>
<trkpt lat="43.457003" lon="3.751859">
</trkpt>
<trkpt lat="43.456938" lon="3.751925">
</trkpt>
<trkpt lat="43.456566" lon="3.752187">
</trkpt>
<trkpt lat="43.456467" lon="3.75223">
</trkpt>
<trkpt lat="43.456227" lon="3.752255">
</trkpt>
<trkpt lat="43.456133" lon="3.752291">
</trkpt>
<trkpt lat="43.456058" lon="3.752354">
</trkpt>
<trkpt lat="43.455845" lon="3.752614">
</trkpt>
<trkpt lat="43.455791" lon="3.75269">
</trkpt>
</trkseg>
</trk>
</gpx>