<?xml version="1.0" encoding="UTF-8"?>
<gpx version="1.0" creator="Calcul itineraires - www.calculitineraires.fr" xmlns:xsi="http://www.w3.org/2001/XMLSchema-instance" xmlns="http://www.topografix.com/GPX/1/0" xsi:schemaLocation="http://www.topografix.com/GPX/1/0 http://www.topografix.com/GPX/1/0/gpx.xsd">
<trk>
<name>a</name>
<trkseg>
<trkpt lat="43.435206918783415" lon="3.7738603481536175">
</trkpt>
<trkpt lat="43.435212" lon="3.773861">
</trkpt>
<trkpt lat="43.435214" lon="3.773832">
</trkpt>
<trkpt lat="43.435289" lon="3.772952">
</trkpt>
<trkpt lat="43.435336" lon="3.771843">
</trkpt>
<trkpt lat="43.43533" lon="3.771717">
</trkpt>
<trkpt lat="43.435301" lon="3.771577">
</trkpt>
<trkpt lat="43.435161" lon="3.771459">
</trkpt>
<trkpt lat="43.435131" lon="3.771337">
</trkpt>
<trkpt lat="43.435118" lon="3.771255">
</trkpt>
<trkpt lat="43.435128" lon="3.771113">
</trkpt>
<trkpt lat="43.435285" lon="3.770912">
</trkpt>
<trkpt lat="43.435351" lon="3.770798">
</trkpt>
<trkpt lat="43.435406" lon="3.770582">
</trkpt>
<trkpt lat="43.435424" lon="3.770368">
</trkpt>
<trkpt lat="43.435504" lon="3.768765">
</trkpt>
<trkpt lat="43.435557" lon="3.768116">
</trkpt>
<trkpt lat="43.4357" lon="3.765209">
</trkpt>
<trkpt lat="43.435673" lon="3.764865">
</trkpt>
<trkpt lat="43.435768" lon="3.762836">
</trkpt>
<trkpt lat="43.435768" lon="3.762836">
</trkpt>
<trkpt lat="43.435771" lon="3.762764">
</trkpt>
<trkpt lat="43.435831" lon="3.762767">
</trkpt>
<trkpt lat="43.435859" lon="3.762769">
</trkpt>
<trkpt lat="43.435919" lon="3.762772">
</trkpt>
<trkpt lat="43.435946" lon="3.762539">
</trkpt>
<trkpt lat="43.436087" lon="3.762088">
</trkpt>
<trkpt lat="43.436576" lon="3.762577">
</trkpt>
<trkpt lat="43.436614" lon="3.762635">
</trkpt>
<trkpt lat="43.436668" lon="3.762893">
</trkpt>
<trkpt lat="43.436667" lon="3.76303">
</trkpt>
<trkpt lat="43.436621" lon="3.763256">
</trkpt>
<trkpt lat="43.436621" lon="3.763256">
</trkpt>
<trkpt lat="43.436561" lon="3.76355">
</trkpt>
<trkpt lat="43.436366" lon="3.763898">
</trkpt>
<trkpt lat="43.436269" lon="3.763904">
</trkpt>
<trkpt lat="43.436226" lon="3.76385">
</trkpt>
<trkpt lat="43.436217" lon="3.763773">
</trkpt>
<trkpt lat="43.436237" lon="3.7636">
</trkpt>
<trkpt lat="43.436628" lon="3.762784">
</trkpt>
<trkpt lat="43.437177" lon="3.761787">
</trkpt>
<trkpt lat="43.437251" lon="3.761671">
</trkpt>
<trkpt lat="43.437321" lon="3.76161">
</trkpt>
<trkpt lat="43.437465" lon="3.761564">
</trkpt>
<trkpt lat="43.437592" lon="3.761576">
</trkpt>
<trkpt lat="43.437654" lon="3.761608">
</trkpt>
<trkpt lat="43.437683" lon="3.761565">
</trkpt>
<trkpt lat="43.437724" lon="3.761516">
</trkpt>
<trkpt lat="43.437739" lon="3.761455">
</trkpt>
<trkpt lat="43.437831" lon="3.76135">
</trkpt>
<trkpt lat="43.437868" lon="3.761283">
</trkpt>
<trkpt lat="43.437909" lon="3.761152">
</trkpt>
<trkpt lat="43.437959" lon="3.761091">
</trkpt>
<trkpt lat="43.438011" lon="3.761046">
</trkpt>
<trkpt lat="43.437959" lon="3.760912">
</trkpt>
<trkpt lat="43.437942" lon="3.760739">
</trkpt>
<trkpt lat="43.437963" lon="3.760642">
</trkpt>
<trkpt lat="43.437977" lon="3.76062">
</trkpt>
<trkpt lat="43.437977" lon="3.76062">
</trkpt>
<trkpt lat="43.438051" lon="3.760505">
</trkpt>
<trkpt lat="43.438509" lon="3.76025">
</trkpt>
<trkpt lat="43.43882" lon="3.760131">
</trkpt>
<trkpt lat="43.438918" lon="3.760057">
</trkpt>
<trkpt lat="43.439508" lon="3.75977">
</trkpt>
<trkpt lat="43.439536" lon="3.759772">
</trkpt>
<trkpt lat="43.440156" lon="3.759475">
</trkpt>
<trkpt lat="43.440451" lon="3.759318">
</trkpt>
<trkpt lat="43.440489" lon="3.759299">
</trkpt>
<trkpt lat="43.441142" lon="3.758974">
</trkpt>
<trkpt lat="43.441203" lon="3.758963">
</trkpt>
<trkpt lat="43.441254" lon="3.758991">
</trkpt>
<trkpt lat="43.441287" lon="3.759019">
</trkpt>
<trkpt lat="43.441302" lon="3.759062">
</trkpt>
<trkpt lat="43.441342" lon="3.75905">
</trkpt>
<trkpt lat="43.441512" lon="3.758995">
</trkpt>
<trkpt lat="43.441958" lon="3.758861">
</trkpt>
<trkpt lat="43.442249" lon="3.758838">
</trkpt>
<trkpt lat="43.443166" lon="3.759071">
</trkpt>
<trkpt lat="43.443683" lon="3.75916">
</trkpt>
<trkpt lat="43.443684" lon="3.759032">
</trkpt>
<trkpt lat="43.444125" lon="3.759094">
</trkpt>
<trkpt lat="43.444154" lon="3.759076">
</trkpt>
<trkpt lat="43.444111" lon="3.758891">
</trkpt>
<trkpt lat="43.44406" lon="3.758725">
</trkpt>
<trkpt lat="43.44393" lon="3.758385">
</trkpt>
<trkpt lat="43.443894" lon="3.758339">
</trkpt>
<trkpt lat="43.44399" lon="3.758335">
</trkpt>
<trkpt lat="43.444142" lon="3.75834">
</trkpt>
<trkpt lat="43.444261" lon="3.758331">
</trkpt>
<trkpt lat="43.444267" lon="3.758379">
</trkpt>
<trkpt lat="43.444267" lon="3.758379">
</trkpt>
<trkpt lat="43.444277" lon="3.758456">
</trkpt>
<trkpt lat="43.444347" lon="3.75872">
</trkpt>
<trkpt lat="43.444396" lon="3.75893">
</trkpt>
<trkpt lat="43.444576" lon="3.75923">
</trkpt>
<trkpt lat="43.444687" lon="3.759496">
</trkpt>
<trkpt lat="43.444801" lon="3.759769">
</trkpt>
<trkpt lat="43.444914" lon="3.759935">
</trkpt>
<trkpt lat="43.444985" lon="3.759863">
</trkpt>
<trkpt lat="43.445205" lon="3.759711">
</trkpt>
<trkpt lat="43.445384" lon="3.759587">
</trkpt>
<trkpt lat="43.445384" lon="3.759587">
</trkpt>
<trkpt lat="43.445416" lon="3.759565">
</trkpt>
<trkpt lat="43.445425" lon="3.759303">
</trkpt>
<trkpt lat="43.44548" lon="3.759308">
</trkpt>
<trkpt lat="43.446013" lon="3.759354">
</trkpt>
<trkpt lat="43.44634" lon="3.759412">
</trkpt>
<trkpt lat="43.447336" lon="3.759635">
</trkpt>
<trkpt lat="43.447798" lon="3.759758">
</trkpt>
<trkpt lat="43.449241" lon="3.760213">
</trkpt>
<trkpt lat="43.450022" lon="3.760539">
</trkpt>
<trkpt lat="43.450138" lon="3.760638">
</trkpt>
<trkpt lat="43.450193" lon="3.760759">
</trkpt>
<trkpt lat="43.450171" lon="3.760889">
</trkpt>
<trkpt lat="43.450021" lon="3.761165">
</trkpt>
<trkpt lat="43.450025" lon="3.761268">
</trkpt>
<trkpt lat="43.450067" lon="3.761349">
</trkpt>
<trkpt lat="43.450578" lon="3.761987">
</trkpt>
<trkpt lat="43.451041" lon="3.762459">
</trkpt>
<trkpt lat="43.451558" lon="3.763107">
</trkpt>
<trkpt lat="43.452027" lon="3.763616">
</trkpt>
<trkpt lat="43.452435" lon="3.764058">
</trkpt>
<trkpt lat="43.452671" lon="3.764273">
</trkpt>
<trkpt lat="43.45283" lon="3.764388">
</trkpt>
<trkpt lat="43.453145" lon="3.764534">
</trkpt>
<trkpt lat="43.45336" lon="3.76463">
</trkpt>
<trkpt lat="43.45368" lon="3.764738">
</trkpt>
<trkpt lat="43.453839" lon="3.764781">
</trkpt>
<trkpt lat="43.453839" lon="3.764781">
</trkpt>
<trkpt lat="43.454046" lon="3.764837">
</trkpt>
<trkpt lat="43.45485" lon="3.764832">
</trkpt>
<trkpt lat="43.455073" lon="3.764875">
</trkpt>
<trkpt lat="43.455501" lon="3.765019">
</trkpt>
<trkpt lat="43.455701" lon="3.765039">
</trkpt>
<trkpt lat="43.455864" lon="3.76513">
</trkpt>
<trkpt lat="43.456175" lon="3.76524">
</trkpt>
<trkpt lat="43.456376" lon="3.765265">
</trkpt>
<trkpt lat="43.45658" lon="3.765257">
</trkpt>
<trkpt lat="43.457065" lon="3.765193">
</trkpt>
<trkpt lat="43.45723" lon="3.765203">
</trkpt>
<trkpt lat="43.457635" lon="3.76552">
</trkpt>
<trkpt lat="43.458648" lon="3.766244">
</trkpt>
<trkpt lat="43.459256" lon="3.766722">
</trkpt>
<trkpt lat="43.460218" lon="3.767428">
</trkpt>
<trkpt lat="43.461113" lon="3.768071">
</trkpt>
<trkpt lat="43.461475" lon="3.768114">
</trkpt>
<trkpt lat="43.461568" lon="3.768179">
</trkpt>
<trkpt lat="43.46171" lon="3.768318">
</trkpt>
<trkpt lat="43.461726" lon="3.768436">
</trkpt>
<trkpt lat="43.461691" lon="3.768527">
</trkpt>
<trkpt lat="43.461599" lon="3.768589">
</trkpt>
<trkpt lat="43.461196" lon="3.768732">
</trkpt>
<trkpt lat="43.461196" lon="3.768732">
</trkpt>
<trkpt lat="43.460971" lon="3.768812">
</trkpt>
<trkpt lat="43.460361" lon="3.768935">
</trkpt>
<trkpt lat="43.459959" lon="3.768991">
</trkpt>
<trkpt lat="43.459588" lon="3.769005">
</trkpt>
<trkpt lat="43.459432" lon="3.768996">
</trkpt>
<trkpt lat="43.459343" lon="3.769048">
</trkpt>
<trkpt lat="43.459117" lon="3.769397">
</trkpt>
<trkpt lat="43.459232" lon="3.770239">
</trkpt>
<trkpt lat="43.459439" lon="3.772373">
</trkpt>
<trkpt lat="43.459794" lon="3.773787">
</trkpt>
<trkpt lat="43.460035" lon="3.774528">
</trkpt>
<trkpt lat="43.46016" lon="3.775163">
</trkpt>
<trkpt lat="43.460449" lon="3.775545">
</trkpt>
<trkpt lat="43.460588" lon="3.77579">
</trkpt>
<trkpt lat="43.461316" lon="3.777833">
</trkpt>
<trkpt lat="43.461599" lon="3.778505">
</trkpt>
<trkpt lat="43.461765" lon="3.77903">
</trkpt>
<trkpt lat="43.461751" lon="3.779044">
</trkpt>
<trkpt lat="43.461714" lon="3.779083">
</trkpt>
<trkpt lat="43.461714" lon="3.779083">
</trkpt>
<trkpt lat="43.461676" lon="3.779123">
</trkpt>
<trkpt lat="43.461492" lon="3.779387">
</trkpt>
<trkpt lat="43.46144" lon="3.779437">
</trkpt>
<trkpt lat="43.461386" lon="3.779568">
</trkpt>
<trkpt lat="43.4613" lon="3.779674">
</trkpt>
<trkpt lat="43.461262" lon="3.779761">
</trkpt>
<trkpt lat="43.461107" lon="3.780008">
</trkpt>
<trkpt lat="43.461046" lon="3.780042">
</trkpt>
<trkpt lat="43.460983" lon="3.780152">
</trkpt>
<trkpt lat="43.460843" lon="3.780665">
</trkpt>
<trkpt lat="43.46077" lon="3.780853">
</trkpt>
<trkpt lat="43.460754" lon="3.78094">
</trkpt>
<trkpt lat="43.460713" lon="3.781026">
</trkpt>
<trkpt lat="43.460611" lon="3.781367">
</trkpt>
<trkpt lat="43.460608" lon="3.781453">
</trkpt>
<trkpt lat="43.460559" lon="3.781592">
</trkpt>
<trkpt lat="43.460554" lon="3.781706">
</trkpt>
<trkpt lat="43.460579" lon="3.781727">
</trkpt>
<trkpt lat="43.460641" lon="3.781783">
</trkpt>
<trkpt lat="43.460662" lon="3.781846">
</trkpt>
<trkpt lat="43.460649" lon="3.782009">
</trkpt>
<trkpt lat="43.460654" lon="3.782159">
</trkpt>
<trkpt lat="43.460724" lon="3.782552">
</trkpt>
<trkpt lat="43.460727" lon="3.782861">
</trkpt>
<trkpt lat="43.460709" lon="3.783173">
</trkpt>
<trkpt lat="43.460709" lon="3.783173">
</trkpt>
<trkpt lat="43.460696" lon="3.783412">
</trkpt>
<trkpt lat="43.46068" lon="3.783765">
</trkpt>
<trkpt lat="43.460714" lon="3.783746">
</trkpt>
<trkpt lat="43.46081" lon="3.783953">
</trkpt>
<trkpt lat="43.460917" lon="3.784122">
</trkpt>
<trkpt lat="43.46095" lon="3.784267">
</trkpt>
<trkpt lat="43.460956" lon="3.784492">
</trkpt>
<trkpt lat="43.460894" lon="3.784916">
</trkpt>
<trkpt lat="43.46073" lon="3.785646">
</trkpt>
<trkpt lat="43.460635" lon="3.786225">
</trkpt>
<trkpt lat="43.460493" lon="3.78688">
</trkpt>
<trkpt lat="43.460437" lon="3.787056">
</trkpt>
<trkpt lat="43.460437" lon="3.787056">
</trkpt>
<trkpt lat="43.460364" lon="3.78729">
</trkpt>
<trkpt lat="43.460105" lon="3.787668">
</trkpt>
<trkpt lat="43.459984" lon="3.787805">
</trkpt>
<trkpt lat="43.459772" lon="3.787974">
</trkpt>
<trkpt lat="43.459473" lon="3.788349">
</trkpt>
<trkpt lat="43.459108" lon="3.788728">
</trkpt>
<trkpt lat="43.458922" lon="3.788969">
</trkpt>
<trkpt lat="43.458805" lon="3.789084">
</trkpt>
<trkpt lat="43.458628" lon="3.789369">
</trkpt>
<trkpt lat="43.458577" lon="3.789417">
</trkpt>
<trkpt lat="43.458413" lon="3.789441">
</trkpt>
<trkpt lat="43.458322" lon="3.789514">
</trkpt>
<trkpt lat="43.458292" lon="3.789566">
</trkpt>
<trkpt lat="43.458259" lon="3.789637">
</trkpt>
<trkpt lat="43.458264" lon="3.789797">
</trkpt>
<trkpt lat="43.458327" lon="3.789888">
</trkpt>
<trkpt lat="43.458489" lon="3.78995">
</trkpt>
<trkpt lat="43.458514" lon="3.789996">
</trkpt>
<trkpt lat="43.458519" lon="3.790082">
</trkpt>
<trkpt lat="43.458614" lon="3.790202">
</trkpt>
<trkpt lat="43.458657" lon="3.790296">
</trkpt>
<trkpt lat="43.458676" lon="3.790652">
</trkpt>
<trkpt lat="43.458699" lon="3.790696">
</trkpt>
<trkpt lat="43.458842" lon="3.790836">
</trkpt>
<trkpt lat="43.458877" lon="3.790899">
</trkpt>
<trkpt lat="43.458886" lon="3.790971">
</trkpt>
<trkpt lat="43.458886" lon="3.790971">
</trkpt>
<trkpt lat="43.458888" lon="3.790983">
</trkpt>
<trkpt lat="43.459025" lon="3.791219">
</trkpt>
<trkpt lat="43.459193" lon="3.791438">
</trkpt>
<trkpt lat="43.459229" lon="3.791573">
</trkpt>
<trkpt lat="43.459356" lon="3.791838">
</trkpt>
<trkpt lat="43.459446" lon="3.791933">
</trkpt>
<trkpt lat="43.459483" lon="3.792019">
</trkpt>
<trkpt lat="43.459546" lon="3.792079">
</trkpt>
<trkpt lat="43.459597" lon="3.792253">
</trkpt>
<trkpt lat="43.459684" lon="3.79233">
</trkpt>
<trkpt lat="43.459711" lon="3.792402">
</trkpt>
<trkpt lat="43.459756" lon="3.792578">
</trkpt>
<trkpt lat="43.459754" lon="3.792685">
</trkpt>
<trkpt lat="43.459993" lon="3.793142">
</trkpt>
<trkpt lat="43.460004" lon="3.793231">
</trkpt>
<trkpt lat="43.460206" lon="3.793406">
</trkpt>
<trkpt lat="43.460292" lon="3.793523">
</trkpt>
<trkpt lat="43.46037" lon="3.793775">
</trkpt>
<trkpt lat="43.460371" lon="3.79396">
</trkpt>
<trkpt lat="43.460428" lon="3.794124">
</trkpt>
<trkpt lat="43.4605" lon="3.794206">
</trkpt>
<trkpt lat="43.460524" lon="3.794283">
</trkpt>
<trkpt lat="43.460732" lon="3.79464">
</trkpt>
<trkpt lat="43.460883" lon="3.794706">
</trkpt>
<trkpt lat="43.460955" lon="3.794806">
</trkpt>
<trkpt lat="43.46101" lon="3.794985">
</trkpt>
<trkpt lat="43.461005" lon="3.795034">
</trkpt>
<trkpt lat="43.460993" lon="3.795147">
</trkpt>
<trkpt lat="43.460949" lon="3.795291">
</trkpt>
<trkpt lat="43.460937" lon="3.795477">
</trkpt>
<trkpt lat="43.460942" lon="3.795645">
</trkpt>
<trkpt lat="43.460964" lon="3.795768">
</trkpt>
<trkpt lat="43.460963" lon="3.795925">
</trkpt>
<trkpt lat="43.460889" lon="3.796182">
</trkpt>
<trkpt lat="43.460781" lon="3.796466">
</trkpt>
<trkpt lat="43.460757" lon="3.796804">
</trkpt>
<trkpt lat="43.46067" lon="3.797488">
</trkpt>
<trkpt lat="43.460763" lon="3.797991">
</trkpt>
<trkpt lat="43.460919" lon="3.798242">
</trkpt>
<trkpt lat="43.461048" lon="3.798486">
</trkpt>
<trkpt lat="43.461143" lon="3.79889">
</trkpt>
<trkpt lat="43.461308" lon="3.799249">
</trkpt>
<trkpt lat="43.461643" lon="3.800048">
</trkpt>
<trkpt lat="43.461865" lon="3.800702">
</trkpt>
<trkpt lat="43.4619" lon="3.8008">
</trkpt>
<trkpt lat="43.462224" lon="3.80182">
</trkpt>
<trkpt lat="43.462308" lon="3.802082">
</trkpt>
<trkpt lat="43.462856" lon="3.80348">
</trkpt>
<trkpt lat="43.462856" lon="3.80348">
</trkpt>
<trkpt lat="43.46318" lon="3.804308">
</trkpt>
<trkpt lat="43.463213" lon="3.804392">
</trkpt>
<trkpt lat="43.463573" lon="3.805324">
</trkpt>
<trkpt lat="43.463857" lon="3.805854">
</trkpt>
<trkpt lat="43.464001" lon="3.806182">
</trkpt>
<trkpt lat="43.464123" lon="3.806418">
</trkpt>
<trkpt lat="43.464634" lon="3.807552">
</trkpt>
<trkpt lat="43.464242" lon="3.807868">
</trkpt>
<trkpt lat="43.463953" lon="3.808136">
</trkpt>
<trkpt lat="43.46391" lon="3.808214">
</trkpt>
<trkpt lat="43.463968" lon="3.808363">
</trkpt>
<trkpt lat="43.463861" lon="3.809001">
</trkpt>
<trkpt lat="43.463863" lon="3.809127">
</trkpt>
<trkpt lat="43.463887" lon="3.809235">
</trkpt>
<trkpt lat="43.464013" lon="3.809364">
</trkpt>
<trkpt lat="43.464268" lon="3.80956">
</trkpt>
<trkpt lat="43.464413" lon="3.80974">
</trkpt>
<trkpt lat="43.464522" lon="3.809978">
</trkpt>
<trkpt lat="43.464606" lon="3.810308">
</trkpt>
<trkpt lat="43.464634" lon="3.81056">
</trkpt>
<trkpt lat="43.464609" lon="3.810971">
</trkpt>
<trkpt lat="43.464612" lon="3.811116">
</trkpt>
<trkpt lat="43.464754" lon="3.811576">
</trkpt>
<trkpt lat="43.46477" lon="3.811715">
</trkpt>
<trkpt lat="43.464754" lon="3.812015">
</trkpt>
<trkpt lat="43.464777" lon="3.812179">
</trkpt>
<trkpt lat="43.464813" lon="3.812276">
</trkpt>
<trkpt lat="43.465275" lon="3.81287">
</trkpt>
<trkpt lat="43.465498" lon="3.813261">
</trkpt>
<trkpt lat="43.465771" lon="3.813581">
</trkpt>
<trkpt lat="43.466328" lon="3.814413">
</trkpt>
<trkpt lat="43.466328" lon="3.814413">
</trkpt>
<trkpt lat="43.46641" lon="3.814535">
</trkpt>
<trkpt lat="43.466517" lon="3.814811">
</trkpt>
<trkpt lat="43.466581" lon="3.814941">
</trkpt>
<trkpt lat="43.466484" lon="3.815085">
</trkpt>
<trkpt lat="43.465975" lon="3.815798">
</trkpt>
<trkpt lat="43.465381" lon="3.816547">
</trkpt>
<trkpt lat="43.465066" lon="3.816832">
</trkpt>
<trkpt lat="43.465066" lon="3.816832">
</trkpt>
<trkpt lat="43.465004" lon="3.816888">
</trkpt>
<trkpt lat="43.464965" lon="3.816958">
</trkpt>
<trkpt lat="43.464949" lon="3.817026">
</trkpt>
<trkpt lat="43.46495" lon="3.817101">
</trkpt>
<trkpt lat="43.465003" lon="3.817211">
</trkpt>
<trkpt lat="43.465057" lon="3.817244">
</trkpt>
<trkpt lat="43.465099" lon="3.817243">
</trkpt>
<trkpt lat="43.465195" lon="3.817205">
</trkpt>
<trkpt lat="43.465455" lon="3.816855">
</trkpt>
<trkpt lat="43.465455" lon="3.816855">
</trkpt>
<trkpt lat="43.465466" lon="3.816839">
</trkpt>
<trkpt lat="43.465483" lon="3.816794">
</trkpt>
<trkpt lat="43.465474" lon="3.81674">
</trkpt>
<trkpt lat="43.465446" lon="3.816712">
</trkpt>
<trkpt lat="43.465411" lon="3.816715">
</trkpt>
<trkpt lat="43.465115" lon="3.817013">
</trkpt>
<trkpt lat="43.465021" lon="3.817118">
</trkpt>
<trkpt lat="43.463928" lon="3.818449">
</trkpt>
<trkpt lat="43.46386" lon="3.818551">
</trkpt>
<trkpt lat="43.463759" lon="3.818729">
</trkpt>
<trkpt lat="43.46349" lon="3.819">
</trkpt>
<trkpt lat="43.463251" lon="3.819191">
</trkpt>
<trkpt lat="43.462912" lon="3.819398">
</trkpt>
<trkpt lat="43.462838" lon="3.819429">
</trkpt>
<trkpt lat="43.462482" lon="3.819558">
</trkpt>
<trkpt lat="43.462222" lon="3.819616">
</trkpt>
<trkpt lat="43.461891" lon="3.819647">
</trkpt>
<trkpt lat="43.461607" lon="3.819619">
</trkpt>
<trkpt lat="43.461607" lon="3.819619">
</trkpt>
<trkpt lat="43.461456" lon="3.819604">
</trkpt>
<trkpt lat="43.461241" lon="3.819554">
</trkpt>
<trkpt lat="43.460911" lon="3.819434">
</trkpt>
<trkpt lat="43.460664" lon="3.819295">
</trkpt>
<trkpt lat="43.460328" lon="3.819051">
</trkpt>
<trkpt lat="43.460194" lon="3.81893">
</trkpt>
<trkpt lat="43.459988" lon="3.818694">
</trkpt>
<trkpt lat="43.459729" lon="3.818354">
</trkpt>
<trkpt lat="43.459658" lon="3.818288">
</trkpt>
<trkpt lat="43.459117" lon="3.817504">
</trkpt>
<trkpt lat="43.457913" lon="3.815778">
</trkpt>
<trkpt lat="43.45734" lon="3.81494">
</trkpt>
<trkpt lat="43.456999" lon="3.81437">
</trkpt>
<trkpt lat="43.456017" lon="3.812434">
</trkpt>
<trkpt lat="43.456017" lon="3.812434">
</trkpt>
<trkpt lat="43.45552" lon="3.811452">
</trkpt>
<trkpt lat="43.455438" lon="3.811303">
</trkpt>
<trkpt lat="43.455313" lon="3.811136">
</trkpt>
<trkpt lat="43.455285" lon="3.811046">
</trkpt>
<trkpt lat="43.455149" lon="3.810718">
</trkpt>
<trkpt lat="43.453102" lon="3.806657">
</trkpt>
<trkpt lat="43.452533" lon="3.805457">
</trkpt>
<trkpt lat="43.449911" lon="3.799789">
</trkpt>
<trkpt lat="43.449582" lon="3.799113">
</trkpt>
<trkpt lat="43.449307" lon="3.798611">
</trkpt>
<trkpt lat="43.449043" lon="3.798204">
</trkpt>
<trkpt lat="43.448795" lon="3.797882">
</trkpt>
<trkpt lat="43.448361" lon="3.797405">
</trkpt>
<trkpt lat="43.447877" lon="3.796981">
</trkpt>
<trkpt lat="43.446252" lon="3.795622">
</trkpt>
<trkpt lat="43.446252" lon="3.795622">
</trkpt>
<trkpt lat="43.443345" lon="3.793193">
</trkpt>
<trkpt lat="43.442917" lon="3.792797">
</trkpt>
<trkpt lat="43.442655" lon="3.792525">
</trkpt>
<trkpt lat="43.442247" lon="3.792031">
</trkpt>
<trkpt lat="43.442026" lon="3.791839">
</trkpt>
<trkpt lat="43.44191" lon="3.791788">
</trkpt>
<trkpt lat="43.441645" lon="3.791749">
</trkpt>
<trkpt lat="43.441436" lon="3.79196">
</trkpt>
<trkpt lat="43.441381" lon="3.792054">
</trkpt>
<trkpt lat="43.441306" lon="3.792062">
</trkpt>
<trkpt lat="43.441245" lon="3.792047">
</trkpt>
<trkpt lat="43.441194" lon="3.791954">
</trkpt>
<trkpt lat="43.441095" lon="3.791844">
</trkpt>
<trkpt lat="43.441043" lon="3.791753">
</trkpt>
<trkpt lat="43.440937" lon="3.791673">
</trkpt>
<trkpt lat="43.440932" lon="3.791556">
</trkpt>
<trkpt lat="43.440929" lon="3.791484">
</trkpt>
<trkpt lat="43.441041" lon="3.791402">
</trkpt>
<trkpt lat="43.441096" lon="3.791274">
</trkpt>
<trkpt lat="43.441105" lon="3.791198">
</trkpt>
<trkpt lat="43.441092" lon="3.791102">
</trkpt>
<trkpt lat="43.441008" lon="3.790189">
</trkpt>
<trkpt lat="43.440959" lon="3.789938">
</trkpt>
<trkpt lat="43.440893" lon="3.789717">
</trkpt>
<trkpt lat="43.437559" lon="3.782487">
</trkpt>
<trkpt lat="43.436599" lon="3.780408">
</trkpt>
<trkpt lat="43.436599" lon="3.780408">
</trkpt>
<trkpt lat="43.43595" lon="3.779004">
</trkpt>
<trkpt lat="43.435667" lon="3.77846">
</trkpt>
<trkpt lat="43.435587" lon="3.778334">
</trkpt>
<trkpt lat="43.435527" lon="3.778291">
</trkpt>
<trkpt lat="43.43542" lon="3.778267">
</trkpt>
<trkpt lat="43.435392" lon="3.778243">
</trkpt>
<trkpt lat="43.43537" lon="3.778149">
</trkpt>
<trkpt lat="43.435354" lon="3.778078">
</trkpt>
<trkpt lat="43.435337" lon="3.778002">
</trkpt>
<trkpt lat="43.435417" lon="3.777812">
</trkpt>
<trkpt lat="43.435461" lon="3.777641">
</trkpt>
<trkpt lat="43.435409" lon="3.777299">
</trkpt>
<trkpt lat="43.43535" lon="3.776694">
</trkpt>
<trkpt lat="43.435325" lon="3.77643">
</trkpt>
<trkpt lat="43.435267" lon="3.775914">
</trkpt>
<trkpt lat="43.435208" lon="3.775021">
</trkpt>
<trkpt lat="43.435198" lon="3.774496">
</trkpt>
<trkpt lat="43.435188" lon="3.774414">
</trkpt>
<trkpt lat="43.435134" lon="3.77432">
</trkpt>
<trkpt lat="43.435136" lon="3.77422">
</trkpt>
<trkpt lat="43.435149" lon="3.774103">
</trkpt>
<trkpt lat="43.435203" lon="3.77397">
</trkpt>
<trkpt lat="43.435212" lon="3.773861">
</trkpt>
</trkseg>
</trk>
</gpx>